PostOfficeName,Pincode,City,District,State
Connaught Place,110001,New Delhi,New Delhi,Delhi
Constitution House,110001,New Delhi,Central Delhi,Delhi
Eastern Court,110001,New Delhi,Central Delhi,Delhi
Election Commission,110001,New Delhi,Central Delhi,Delhi
Janpath,110001,New Delhi,Central Delhi,Delhi
Krishi Bhawan,110001,New Delhi,Central Delhi,Delhi
Lady Harding Medical College,110001,New Delhi,Central Delhi,Delhi
Laxminarain Mandir,110001,New Delhi,Central Delhi,Delhi
New Delhi G P O,110001,New Delhi,Central Delhi,Delhi
North Avenue,110001,New Delhi,Central Delhi,Delhi
Parliament House,110001,New Delhi,New Delhi,Delhi
Parliament Street,110001,New Delhi,New Delhi,Delhi
Patiala House,110001,New Delhi,Central Delhi,Delhi
Pragati Maidan,110001,New Delhi,Central Delhi,Delhi
Rail Bhawan,110001,New Delhi,Central Delhi,Delhi
Sansadiya Soudha,110001,New Delhi,Central Delhi,Delhi
Sectt North,110001,New Delhi,Central Delhi,Delhi
Shastri Bhawan,110001,New Delhi,Central Delhi,Delhi
Supreme Court,110001,New Delhi,Central Delhi,Delhi
A G C R,110002,New Delhi,Central Delhi,Delhi
Ajmeri Gate Extension,110002,New Delhi,Central Delhi,Delhi
Ansari Road,110002,New Delhi,Central Delhi,Delhi
Darya Ganj,110002,New Delhi,Central Delhi,Delhi
Gandhi Samarak,110002,New Delhi,Central Delhi,Delhi
Indian Agriculture,110002,New Delhi,Central Delhi,Delhi
Indraprastha,110002,New Delhi,Central Delhi,Delhi
Indraprastha Estate,110002,New Delhi,Central Delhi,Delhi
Minto Road,110002,New Delhi,Central Delhi,Delhi
Rajghat Power House,110002,New Delhi,Central Delhi,Delhi
Aliganj,110003,New Delhi,North Delhi,Delhi
Delhi High Court,110003,New Delhi,Central Delhi,Delhi
Golf Links,110003,New Delhi,Central Delhi,Delhi
Jawahar Lal Nehru Stadium,110003,New Delhi,South Delhi,Delhi
Lodi Colony Market,110003,New Delhi,South Delhi,Delhi
Lodi House Hostel,110003,New Delhi,South Delhi,Delhi
Lodi Road,110003,New Delhi,South Delhi,Delhi
Lok Nagar Bhawan,110003,New Delhi,Central Delhi,Delhi
Oberei Intercontinental,110003,New Delhi,South Delhi,Delhi
Pandara Road,110003,New Delhi,Central Delhi,Delhi
Pragati Vihar,110003,New Delhi,South Delhi,Delhi
Safdarjang Air Port,110003,New Delhi,South Delhi,Delhi
Wazir Nagar,110003,New Delhi,South Delhi,Delhi
Rashtrapati Bhawan,110004,New Delhi,Central Delhi,Delhi
Anand Nagar,110005,New Delhi,Central Delhi,Delhi
Anand Parbat,110005,New Delhi,Central Delhi,Delhi
Bank Street,110005,New Delhi,Central Delhi,Delhi
Desh Bandhu Gupta Road,110005,New Delhi,Central Delhi,Delhi
Karol Bagh,110005,New Delhi,Central Delhi,Delhi
Lower Camp Anand Parbat,110005,New Delhi,Central Delhi,Delhi
Model Basti,110005,New Delhi,North Delhi,Delhi
Sat Nahar,110005,New Delhi,Central Delhi,Delhi
Than Singh Nagar,110005,New Delhi,Central Delhi,Delhi
Bara Tooti,110006,New Delhi,Central Delhi,Delhi
Chandni Chowk,110006,New Delhi,Central Delhi,Delhi
Chawri Bazar,110006,New Delhi,Central Delhi,Delhi
Dareeba,110006,New Delhi,Central Delhi,Delhi
Delhi Cloth Mills,110006,New Delhi,Central Delhi,Delhi
Delhi G P O,110006,New Delhi,Central Delhi,Delhi
Delhi Sadar Bazar,110006,New Delhi,Central Delhi,Delhi
Farashkhana,110006,New Delhi,Central Delhi,Delhi
Fatehpuri,110006,New Delhi,Central Delhi,Delhi
Hamdard Dawakhana,110006,New Delhi,Central Delhi,Delhi
Hauz Qazi,110006,New Delhi,Central Delhi,Delhi
Idgah Road I S B T,110006,New Delhi,Central Delhi,Delhi
Jama Masjid,110006,New Delhi,Central Delhi,Delhi
Mori Gate,110006,New Delhi,Central Delhi,Delhi
Red Fort,110006,New Delhi,Central Delhi,Delhi
Sadar Thana Road,110006,New Delhi,Central Delhi,Delhi
Birla Lines,110007,New Delhi,North Delhi,Delhi
C C Institute,110007,New Delhi,North Delhi,Delhi
Delhi University,110007,New Delhi,North Delhi,Delhi
Jawahar Nagar,110007,New Delhi,North Delhi,Delhi
Kamla Nagar,110007,New Delhi,North Delhi,Delhi
Lancer Road Market,110007,New Delhi,North Delhi,Delhi
Lok Nayak Bhawan,110007,New Delhi,North Delhi,Delhi
Malka Ganj,110007,New Delhi,North Delhi,Delhi
Malka Ganj Market,110007,New Delhi,North Delhi,Delhi
Partap Nagar,110007,New Delhi,North Delhi,Delhi
Patrachar Road,110007,New Delhi,North Delhi,Delhi
Patrachar Vidyala,110007,New Delhi,North Delhi,Delhi
Pragati Vihar,110007,New Delhi,North Delhi,Delhi
Rana Pratap Bagh,110007,New Delhi,North Delhi,Delhi
Rly C A O,110007,New Delhi,North Delhi,Delhi
Roop Nagar,110007,New Delhi,North Delhi,Delhi
Roshan Area Road,110007,New Delhi,North Delhi,Delhi
Safdarjang Air Port,110007,New Delhi,North Delhi,Delhi
Sewa Sangh,110007,New Delhi,North Delhi,Delhi
Shakti Nagar,110007,New Delhi,North Delhi,Delhi
Subzi Mandi,110007,New Delhi,North Delhi,Delhi
Timarpur,110007,New Delhi,North Delhi,Delhi
Wazir Nagar,110007,New Delhi,North Delhi,Delhi
Dada Ghosh Bhawan,110008,New Delhi,Central Delhi,Delhi
Patel Nagar,110008,New Delhi,Central Delhi,Delhi
Patel Nagar East,110008,New Delhi,Central Delhi,Delhi
Patel Nagar South,110008,New Delhi,Central Delhi,Delhi
Patel Nagar West,110008,New Delhi,Central Delhi,Delhi
A F Palam,110010,New Delhi,West Delhi,Delhi
A P S Colony,110010,New Delhi,West Delhi,Delhi
Army Base,110010,New Delhi,West Delhi,Delhi
Bazar Road,110010,New Delhi,West Delhi,Delhi
Central Ordinance,110010,New Delhi,West Delhi,Delhi
Central Vehicle,110010,New Delhi,West Delhi,Delhi
Delhi Cantt,110010,New Delhi,South West,Delhi
Depot,110010,New Delhi,West Delhi,Delhi
Dhaula Khuan,110010,New Delhi,West Delhi,Delhi
Kirby Place,110010,New Delhi,West Delhi,Delhi
Work Shop,110010,New Delhi,West Delhi,Delhi
Defence Head Qrs,110011,New Delhi,Central Delhi,Delhi
Gymkhana Club,110011,New Delhi,Central Delhi,Delhi
Nirman Bhawan,110011,New Delhi,Central Delhi,Delhi
Sectt South,110011,New Delhi,Central Delhi,Delhi
Shahjahan Road,110011,New Delhi,Central Delhi,Delhi
South Avenue,110011,New Delhi,Central Delhi,Delhi
U P S C,110011,New Delhi,Central Delhi,Delhi
Udyog Bhawan,110011,New Delhi,Central Delhi,Delhi
Central Tractor,110012,New Delhi,Central Delhi,Delhi
Inderpuri,110012,New Delhi,Central Delhi,Delhi
N P Laboratories,110012,New Delhi,Central Delhi,Delhi
Organisation,110012,New Delhi,Central Delhi,Delhi
Research Institute,110012,New Delhi,Central Delhi,Delhi
Dargah Shareef,110013,New Delhi,South Delhi,Delhi
Hazrat Nizamuddin,110013,New Delhi,South Delhi,Delhi
Hari Nagar Ashram,110014,New Delhi,South Delhi,Delhi
Jangpura,110014,New Delhi,South Delhi,Delhi
Central Kirti Nagar,110015,New Delhi,North Delhi,Delhi
D I Area,110015,New Delhi,North Delhi,Delhi
E S I Hospital,110015,New Delhi,North Delhi,Delhi
Industrial Area,110015,New Delhi,North Delhi,Delhi
Karampura,110015,New Delhi,North Delhi,Delhi
Kirti Nagar,110015,New Delhi,North Delhi,Delhi
Mansarover Garden,110015,New Delhi,North Delhi,Delhi
Moti Nagar,110015,New Delhi,North Delhi,Delhi
North Industrial Area,110015,New Delhi,North Delhi,Delhi
Ramesh Nagar,110015,New Delhi,North Delhi,Delhi
Sudershan Park,110015,New Delhi,North Delhi,Delhi
Vishnu Garden,110015,New Delhi,North Delhi,Delhi
Zakhira,110015,New Delhi,North Delhi,Delhi
Ashram,110016,New Delhi,South Delhi,Delhi
Green Park,110016,New Delhi,South Delhi,Delhi
Green Park Market,110016,New Delhi,South Delhi,Delhi
Hauz Khas,110016,New Delhi,South Delhi,Delhi
Hauz Khas Market,110016,New Delhi,South Delhi,Delhi
I I T Hauz Khas,110016,New Delhi,South Delhi,Delhi
N I E Compus,110016,New Delhi,South Delhi,Delhi
Shri Aurobindo,110016,New Delhi,South Delhi,Delhi
Yusaf Sarai,110016,New Delhi,South Delhi,Delhi
Malviya Nagar,110017,New Delhi,South Delhi,Delhi
Panchseel Enclave,110017,New Delhi,South Delhi,Delhi
Pushpa Vihar Sector I,110017,New Delhi,South Delhi,Delhi
South Malviya Nagar,110017,New Delhi,South Delhi,Delhi
Ashok Nagar,110018,New Delhi,North Delhi,Delhi
Chand Nagar,110018,New Delhi,North Delhi,Delhi
Fateh Nagar,110018,New Delhi,North Delhi,Delhi
Khyalla Phase I,110018,New Delhi,North Delhi,Delhi
Khyalla Phase II,110018,New Delhi,North Delhi,Delhi
Mahabir Nagar,110018,New Delhi,West Delhi,Delhi
Major Bhupinder Singh Nag,110018,New Delhi,West Delhi,Delhi
Tihar,110018,New Delhi,West Delhi,Delhi
Tilak Nagar,110018,New Delhi,West Delhi,Delhi
Tilak Nagar East,110018,New Delhi,West Delhi,Delhi
Vikaspuri,110018,New Delhi,West Delhi,Delhi
Vishnu Garden,110018,New Delhi,West Delhi,Delhi
Govindpuri,110019,New Delhi,South Delhi,Delhi
Kalkaji,110019,New Delhi,South Delhi,Delhi
Nehru Place,110019,New Delhi,South Delhi,Delhi
C R R I,110020,New Delhi,South Delhi,Delhi
Flatted Factories Complex,110020,New Delhi,South Delhi,Delhi
Okhla Industrial Estate,110020,New Delhi,South Delhi,Delhi
Anand Niketan,110021,New Delhi,South Delhi,Delhi
Ashoka Hotel,110021,New Delhi,New Delhi,Delhi
Chankyapuri,110021,New Delhi,New Delhi,Delhi
Malcha Marg,110021,New Delhi,South Delhi,Delhi
Moti Bagh,110021,New Delhi,South Delhi,Delhi
Nanakpura,110021,New Delhi,South Delhi,Delhi
Postal Saving Bureau,110022,New Delhi,South Delhi,Delhi
R K Puram Sector I,110022,New Delhi,South Delhi,Delhi
R K Puram Sector Ii,110022,New Delhi,South Delhi,Delhi
R K Puram Sector Iii,110022,New Delhi,South Delhi,Delhi
R K Puram Sector Iv,110022,New Delhi,South Delhi,Delhi
R K Puram Sector Ix,110022,New Delhi,South Delhi,Delhi
R K Puram Sector Vii,110022,New Delhi,South Delhi,Delhi
R K Puram Sector Viii,110022,New Delhi,South Delhi,Delhi
R K Puram Sector Xii,110022,New Delhi,South Delhi,Delhi
R K Puram V,110022,New Delhi,South Delhi,Delhi
Kidwai Nagar,110023,New Delhi,South Delhi,Delhi
Kidwai Nagar West,110023,New Delhi,South Delhi,Delhi
Laxmi Bai Nagar,110023,New Delhi,South Delhi,Delhi
Netaji Nagar,110023,New Delhi,South Delhi,Delhi
Sarojini Nagar,110023,New Delhi,South Delhi,Delhi
Amar Colony,110024,New Delhi,South Delhi,Delhi
Defence Colony,110024,New Delhi,South Delhi,Delhi
Krishna Market,110024,New Delhi,South Delhi,Delhi
Lajpat Nagar,110024,New Delhi,South Delhi,Delhi
Jamia Nagar,110025,New Delhi,South Delhi,Delhi
Zakhir Nagar,110025,New Delhi,South Delhi,Delhi
Punjabi Bagh,110026,New Delhi,West Delhi,Delhi
Punjabi Bagh Sector Iii,110026,New Delhi,West Delhi,Delhi
J 6Block Rajouri Garden,110027,New Delhi,West Delhi,Delhi
J J Colony,110027,New Delhi,West Delhi,Delhi
Janta Market,110027,New Delhi,West Delhi,Delhi
Najafgarh Road,110027,New Delhi,South West,Delhi
Rajouri Garden,110027,New Delhi,West Delhi,Delhi
Rajouri Market,110027,New Delhi,West Delhi,Delhi
Subhash Nagar,110027,New Delhi,West Delhi,Delhi
Subhash Nagar West,110027,New Delhi,West Delhi,Delhi
Tatarpur,110027,New Delhi,West Delhi,Delhi
Naraina,110028,New Delhi,West Delhi,Delhi
Naraina Industrial Estate,110028,New Delhi,West Delhi,Delhi
Naraina Vihar,110028,New Delhi,West Delhi,Delhi
Himayunpur Extn,110029,New Delhi,South Delhi,Delhi
Nauroji Nagar,110029,New Delhi,South Delhi,Delhi
Safdarjang Enclave,110029,New Delhi,South Delhi,Delhi
MehrauIi,110030,New Delhi,South Delhi,Delhi
T B Hospital,110030,New Delhi,South Delhi,Delhi
Gandhi Nagar,110031,New Delhi,East Delhi,Delhi
Gandhi Nagar Bazar,110031,New Delhi,East Delhi,Delhi
Geeta Colony,110031,New Delhi,East Delhi,Delhi
Kailash Nagar,110031,New Delhi,East Delhi,Delhi
Raghubarpura,110031,New Delhi,East Delhi,Delhi
Sahstri Nagar,110031,New Delhi,East Delhi,Delhi
Balbir Nagar,110032,New Delhi,East Delhi,Delhi
Bhola Nath Nagar,110032,New Delhi,East Delhi,Delhi
Dilshad Garden,110032,New Delhi,East Delhi,Delhi
Kabool Nagar,110032,New Delhi,East Delhi,Delhi
Loni Road,110032,New Delhi,East Delhi,Delhi
Mansarover Park,110032,New Delhi,East Delhi,Delhi
New Seemapuri,110032,New Delhi,North East,Delhi
Rohtash Nagar,110032,New Delhi,East Delhi,Delhi
Seemapuri Old,110032,New Delhi,North East,Delhi
Shahdara,110032,New Delhi,North East,Delhi
Shahdara Mandi,110032,New Delhi,North East,Delhi
Teliwara,110032,New Delhi,East Delhi,Delhi
Vishwa Karma Nagar,110032,New Delhi,East Delhi,Delhi
Vishwan Nagar,110032,New Delhi,East Delhi,Delhi
Vivek Vihar,110032,New Delhi,East Delhi,Delhi
A T Mills,110033,New Delhi,North Delhi,Delhi
Adarsh Nagar,110033,New Delhi,North Delhi,Delhi
Bhaiparma Nand Nagar,110033,New Delhi,North Delhi,Delhi
G T S Nagar,110033,New Delhi,North Delhi,Delhi
Gujranwala Nagar Part Ii,110033,New Delhi,North Delhi,Delhi
Harijan Sewak Sangh,110033,New Delhi,North Delhi,Delhi
Jahangirpuri Block A,110033,New Delhi,North Delhi,Delhi
Jahangirpuri Block D,110033,New Delhi,North Delhi,Delhi
Jahangirpuri Block H,110033,New Delhi,North Delhi,Delhi
Jaroda Majra,110033,New Delhi,North Delhi,Delhi
Model Town A Block,110033,New Delhi,North West,Delhi
Model Town Ii,110033,New Delhi,North Delhi,Delhi
Mukerjee Nagar,110033,New Delhi,North Delhi,Delhi
New Sabzi Mandi,110033,New Delhi,North Delhi,Delhi
Nirankari Colony,110033,New Delhi,North Delhi,Delhi
Shalimar Bagh,110033,New Delhi,North Delhi,Delhi
Suraj Nagar,110033,New Delhi,North Delhi,Delhi
Vijay Nagar,110033,New Delhi,North Delhi,Delhi
Anandvas Shakurpur,110034,New Delhi,North Delhi,Delhi
Multani Mohalla,110034,New Delhi,North Delhi,Delhi
Pitampura,110034,New Delhi,North Delhi,Delhi
Rani Bagh,110034,New Delhi,North Delhi,Delhi
Saraswati Vihar,110034,New Delhi,North West,Delhi
Shakurbasti R S,110034,New Delhi,North Delhi,Delhi
Shakurpur Block I,110034,New Delhi,North Delhi,Delhi
Srinagar Colony,110034,New Delhi,North Delhi,Delhi
Ganeshpuri,110035,New Delhi,North Delhi,Delhi
Inderlok,110035,New Delhi,North Delhi,Delhi
Lawrence Road,110035,New Delhi,North Delhi,Delhi
Lekhu Nagar,110035,New Delhi,North Delhi,Delhi
Onkar Nagar,110035,New Delhi,North Delhi,Delhi
Power House,110035,New Delhi,North Delhi,Delhi
Sarai Rohila,110035,New Delhi,North Delhi,Delhi
Alipur,110036,New Delhi,North West,Delhi
Nangli Poona,110036,New Delhi,North Delhi,Delhi
Gurgaon Road,110037,New Delhi,South Delhi,Delhi
A F Rajokari,110038,New Delhi,South Delhi,Delhi
Bawana,110039,New Delhi,North West,Delhi
Narela,110040,New Delhi,North West,Delhi
Narela Town,110040,New Delhi,North West,Delhi
Sanoth,110040,New Delhi,North Delhi,Delhi
Budh Nagar,110041,New Delhi,North Delhi,Delhi
Jawalpuri,110041,New Delhi,North Delhi,Delhi
Nagloi,110041,New Delhi,North Delhi,Delhi
Nangloi Phase Iii,110041,New Delhi,North Delhi,Delhi
Sultanpuri Block C,110041,New Delhi,North Delhi,Delhi
Sultanpuri Block F,110041,New Delhi,North Delhi,Delhi
Suttanpuri Block B,110041,New Delhi,North Delhi,Delhi
Badli,110042,New Delhi,North Delhi,Delhi
Haiderpur,110042,New Delhi,North Delhi,Delhi
Sameypur Badli,110042,New Delhi,North Delhi,Delhi
Najafgarh,110043,New Delhi,South West,Delhi
Badarpur,110044,New Delhi,South Delhi,Delhi
Badarpur T P Station,110044,New Delhi,South Delhi,Delhi
Tughlakabad,110044,New Delhi,South Delhi,Delhi
Tughlakabad A F Station,110044,New Delhi,South Delhi,Delhi
Ambrohi,110045,New Delhi,West Delhi,Delhi
Bakrola,110045,New Delhi,South West,Delhi
Palam,110045,New Delhi,West Delhi,Delhi
Palam Enclave,110045,New Delhi,West Delhi,Delhi
Nangal Rava,110046,New Delhi,West Delhi,Delhi
Arjan Garh,110047,New Delhi,South Delhi,Delhi
Greater Kailash,110048,New Delhi,South Delhi,Delhi
Greater Kailash Ii,110048,New Delhi,South Delhi,Delhi
Kailash,110048,New Delhi,South Delhi,Delhi
Kailash Colony,110048,New Delhi,South Delhi,Delhi
Masjidmoth Phase Ii,110048,New Delhi,South Delhi,Delhi
N Block Greater,110048,New Delhi,South Delhi,Delhi
Andrews Ganj,110049,New Delhi,South Delhi,Delhi
Asian Games Village,110049,New Delhi,South Delhi,Delhi
Guatam Nagar,110049,New Delhi,South Delhi,Delhi
Gulmohar Park,110049,New Delhi,South Delhi,Delhi
Masjid Moth Extn,110049,New Delhi,South Delhi,Delhi
Sadiq Nagar,110049,New Delhi,South Delhi,Delhi
South Extn Part I,110049,New Delhi,South Delhi,Delhi
South Extn Part Ii,110049,New Delhi,South Delhi,Delhi
Anarkali,110051,New Delhi,South Delhi,Delhi
Azad Nagar,110051,New Delhi,South Delhi,Delhi
Gobindpura,110051,New Delhi,South Delhi,Delhi
Krishan Nagar,110051,New Delhi,South Delhi,Delhi
Krishan Nagar Bazar,110051,New Delhi,South Delhi,Delhi
Lajpat Rai Chowk,110051,New Delhi,South Delhi,Delhi
Radheypuri,110051,New Delhi,South Delhi,Delhi
Ram Nagar,110051,New Delhi,South Delhi,Delhi
Ashok Vihar,110052,New Delhi,North Delhi,Delhi
Bharat Nagar,110052,New Delhi,North Delhi,Delhi
Nimri,110052,New Delhi,North Delhi,Delhi
Satyawati Nagar,110052,New Delhi,North Delhi,Delhi
Shastri Nagar,110052,New Delhi,North Delhi,Delhi
Wazirpur Phase Iii,110052,New Delhi,North Delhi,Delhi
Bhajanpuri,110053,New Delhi,North Delhi,Delhi
Brahampuri,110053,New Delhi,North Delhi,Delhi
Jagjit Nagar,110053,New Delhi,North Delhi,Delhi
Maujpur,110053,New Delhi,North Delhi,Delhi
Seelampur,110053,New Delhi,North East,Delhi
Yamuna Vihar,110053,New Delhi,North Delhi,Delhi
Zafrabad,110053,New Delhi,North Delhi,Delhi
C R P F Camp,110054,New Delhi,North Delhi,Delhi
Civil Lines,110054,New Delhi,North Delhi,Delhi
Distt Courts,110054,New Delhi,North Delhi,Delhi
Maidens Hotel,110054,New Delhi,North Delhi,Delhi
Amrit Kaur Market,110055,New Delhi,Central Delhi,Delhi
Multani Dhanda,110055,New Delhi,Central Delhi,Delhi
P S B Paharganj,110055,New Delhi,Central Delhi,Delhi
Paharganj,110055,New Delhi,Central Delhi,Delhi
Swami Ram Tirath Nagar,110055,New Delhi,Central Delhi,Delhi
Shakurbasti,110056,New Delhi,North Delhi,Delhi
Munirka,110057,New Delhi,South Delhi,Delhi
Vasant Vihar I,110057,New Delhi,South West,Delhi
Vasant Vihar Ii,110057,New Delhi,South West,Delhi
Janakpuri,110058,New Delhi,West Delhi,Delhi
Janakpuri Block C 4,110058,New Delhi,West Delhi,Delhi
Janakpuri Block D 1,110058,New Delhi,West Delhi,Delhi
Janakpuri Blockc 2,110058,New Delhi,West Delhi,Delhi
Possangipur,110058,New Delhi,West Delhi,Delhi
Jeewan Park,110059,New Delhi,West Delhi,Delhi
Uttam Nagar,110059,New Delhi,West Delhi,Delhi
New Rajinder Nagar,110060,New Delhi,Central Delhi,Delhi
Rajinder Nagar,110060,New Delhi,Central Delhi,Delhi
Ravinder Rangsala,110060,New Delhi,Central Delhi,Delhi
Bijwasan,110061,New Delhi,South West,Delhi
Ambedkar Nagar,110062,New Delhi,South Delhi,Delhi
B S F Camp Tigri,110062,New Delhi,South Delhi,Delhi
Dakshimpuri Phase I,110062,New Delhi,South Delhi,Delhi
Dakshinpuri Phase Iii,110062,New Delhi,South Delhi,Delhi
Hamdard Nagar,110062,New Delhi,South Delhi,Delhi
Khanpur,110062,New Delhi,South Delhi,Delhi
Madangir,110062,New Delhi,South Delhi,Delhi
Pushpa Bhawan,110062,New Delhi,South Delhi,Delhi
Madipur,110063,New Delhi,North Delhi,Delhi
Paschim Vihar,110063,New Delhi,North Delhi,Delhi
Paschim Vihar Block B,110063,New Delhi,North Delhi,Delhi
Qr Madipur,110063,New Delhi,North Delhi,Delhi
Hari Nagar Be Block,110064,New Delhi,West Delhi,Delhi
Hari Nagar Da & Db Block,110064,New Delhi,West Delhi,Delhi
Mayapuri,110064,New Delhi,West Delhi,Delhi
Mayapuri Shopping Centre,110064,New Delhi,West Delhi,Delhi
East Of Kailash,110065,New Delhi,South Delhi,Delhi
Nehru Nagar,110065,New Delhi,South Delhi,Delhi
Sriniwaspuri,110065,New Delhi,South Delhi,Delhi
R K Puram,110066,New Delhi,West Delhi,Delhi
R K Puram West,110066,New Delhi,West Delhi,Delhi
D D A Munirka,110067,New Delhi,West Delhi,Delhi
Jawahar Lal Nehru Univers,110067,New Delhi,West Delhi,Delhi
Chhawla,110071,New Delhi,South West,Delhi
D D A Salam,110072,New Delhi,South West,Delhi
Jharoda Kalan,110072,New Delhi,South West,Delhi
P T S Jharoda Kalan,110072,New Delhi,South West,Delhi
Ujwa,110073,New Delhi,South West,Delhi
Dwarka,110075,New Delhi,West Delhi,Delhi
Kanjhawala,110081,New Delhi,North West,Delhi
Khera Kalan,110082,New Delhi,South West,Delhi
Mangolpuri,110083,New Delhi,North Delhi,Delhi
Mangolpuri Block 1,110083,New Delhi,North Delhi,Delhi
Mangolpuri Block A,110083,New Delhi,North Delhi,Delhi
Mangolpuri Block S,110083,New Delhi,North Delhi,Delhi
Kutubgarh,110084,New Delhi,South Delhi,Delhi
Rohini,110085,New Delhi,North Delhi,Delhi
Himmatpuri,110091,New Delhi,East Delhi,Delhi
Kalyanpuri,110091,New Delhi,East Delhi,Delhi
Khichripur,110091,New Delhi,East Delhi,Delhi
Trilokpuri,110091,New Delhi,East Delhi,Delhi
Kalyan Vas,110092,New Delhi,East Delhi,Delhi
Laxmi Nagar Market,110092,New Delhi,East Delhi,Delhi
Patper Ganj,110092,New Delhi,East Delhi,Delhi
Shakarpur,110092,New Delhi,East Delhi,Delhi
Nand Nagri,110093,New Delhi,East Delhi,Delhi
Nand Nagri A Block,110093,New Delhi,East Delhi,Delhi
Nathu Colony,110093,New Delhi,East Delhi,Delhi
Chilla Villege,110094,New Delhi,East Delhi,Delhi
Gokulpuri,110094,New Delhi,East Delhi,Delhi
Karawal Nagar,110094,New Delhi,North East,Delhi
Bhajan Pura,110096,New Delhi,North Delhi,Delhi
Faridabad,121001,Faridabad,Faridabad,Haryana
Faridabad City,121001,Faridabad,Faridabad,Haryana
Faridabad Factory Area,121001,Faridabad,Faridabad,Haryana
Faridabad G B S,121001,Faridabad,Faridabad,Haryana
Faridabad Industrial Area,121001,Faridabad,Faridabad,Haryana
Faridabad N I T,121001,Faridabad,Faridabad,Haryana
Faridabad Neighbour Hood,121001,Faridabad,Faridabad,Haryana
Faridabad Railway Road,121001,Faridabad,Faridabad,Haryana
Faridabad Sector 15,121001,Faridabad,Faridabad,Haryana
Faridabad Sector 16,121001,Faridabad,Faridabad,Haryana
Ferozepur Gandhi Nagar,121001,Faridabad,Faridabad,Haryana
G T Faridabad Mathura Road,121001,Faridabad,Faridabad,Haryana
Neighbour Hood Iii,121001,Faridabad,Faridabad,Haryana
Neighbour Hood Iv,121001,Faridabad,Faridabad,Haryana
Press Colony,121001,Faridabad,Faridabad,Haryana
Sector 8 Faridabad,121001,Faridabad,Faridabad,Haryana
Faridabad,121002,Faridabad,Faridabad,Haryana
Amar Nagar,121003,Faridabad,Faridabad,Haryana
Balabgarh,121004,Faridabad,Faridabad,Haryana
Ballabgarh,121004,Faridabad,Faridabad,Haryana
Chawla Colony,121004,Faridabad,Faridabad,Haryana
Faridabad Sector 22,121005,Faridabad,Faridabad,Haryana
Faridabad Sector 7,121006,Faridabad,Faridabad,Haryana
Industrial Estate,121006,Faridabad,Faridabad,Haryana
Faridabad,121007,Faridabad,Faridabad,Haryana
Tigaon,121101,Faridabad,Faridabad,Haryana
Jawahar Nagar,121102,Faridabad,Faridabad,Haryana
N T Palwal,121102,Faridabad,Faridabad,Haryana
Palwal,121102,Palwal,Faridabad,Haryana
Hathin,121103,Hathin,Faridabad,Haryana
Punuhana,121104,Faridabad,Faridabad,Haryana
Aurangabad,121105,Faridabad,Faridabad,Haryana
Hodel,121106,Faridabad,Faridabad,Haryana
Housing Colony,121106,Faridabad,Faridabad,Haryana
Hassanpur,121107,Hassanpur,Faridabad,Haryana
Gurgaon,122001,Gurgaon,Gurgaon,Haryana
Gurgaon Kutchery,122001,Gurgaon,Gurgaon,Haryana
New Colony Gurgaon,122001,Gurgaon,Gurgaon,Haryana
Railway Road Gurgaon,122001,Gurgaon,Gurgaon,Haryana
Sohna Adda Gurgaon,122001,Gurgaon,Gurgaon,Haryana
Urban Estate Gurgaon,122001,Gurgaon,Gurgaon,Haryana
Air Force Gurgaon,122005,Gurgaon,Gurgaon,Haryana
Gurgaon Palampur Road,122015,Gurgaon,Gurgaon,Haryana
Dundahera,122016,Gurgaon,Gurgaon,Haryana
Manesar,122050,Gurgaon,Gurgaon,Haryana
Badshahpur,122101,Gurgaon,Gurgaon,Haryana
Bhudsi,122102,Gurgaon,Gurgaon,Haryana
Sohna,122103,Sohna,Gurgaon,Haryana
Ferozepur Jhirka,122104,Ferozepur Jhirka,Gurgaon,Haryana
Taura,122105,Gurgaon,Gurgaon,Haryana
Dharuhera,122106,Dharuhera,Gurgaon,Haryana
Nuh,122107,Nuh,Gurgaon,Haryana
Nagina,122108,Gurgaon,Gurgaon,Haryana
Daulatabad,122109,Gurgaon,Gurgaon,Haryana
Palmar,122211,Gurgaon,Gurgaon,Haryana
Narnaul,123001,Narnaul,Mohindergarh,Haryana
Narnaul City,123001,Narnaul,Mohindergarh,Haryana
Narnaul Kutchery,123001,Narnaul,Mohindergarh,Haryana
Sanwar,123020,Bhiwani,Bhiwani,Haryana
Mandi Ateli,123021,Narnaul,Mohindergarh,Haryana
Chirya,123022,Narnaul,Mohindergarh,Haryana
Nangal Chaudhary,123023,Narnaul,Mohindergarh,Haryana
Satnali,123024,Bhiwani,Bhiwani,Haryana
Baund,123025,Bhiwani,Bhiwani,Haryana
Birhi Kalan,123026,Bhiwani,Bhiwani,Haryana
Birla Colony,123026,Bhiwani,Bhiwani,Haryana
Kanina,123027,Kanina,Mohindergarh,Haryana
Nangal Sirohi,123028,Narnaul,Mohindergarh,Haryana
Mohindergarh,123029,Narnaul,Mohindergarh,Haryana
Bawania,123034,Narnaul,Mohindergarh,Haryana
Pahlawas,123035,Narnaul,Mohindergarh,Haryana
Khori,123101,Narnaul,Mohindergarh,Haryana
Kund,123102,Narnaul,Mohindergarh,Haryana
Khol,123103,Narnaul,Mohindergarh,Haryana
Loharu,123201,Loharu,Bhiwani,Haryana
Guriani,123301,Bhiwani,Bhiwani,Haryana
Kosli,123302,Rewari,Rewari,Haryana
Kuldip Nagar,123302,Rewari,Rewari,Haryana
Nahar,123303,Rewari,Rewari,Haryana
Sahalwas,123304,Rewari,Rewari,Haryana
Bahu,123305,Rewari,Rewari,Haryana
Charkhi Dadri,123306,Charkhi Dadri,Bhiwani,Haryana
Charkhi Dadri City,123306,Bhiwani,Bhiwani,Haryana
Charkhi Dadri Factory,123306,Bhiwani,Bhiwani,Haryana
Achina,123307,Bhiwani,Bhiwani,Haryana
Badhra,123308,Bhiwani,Bhiwani,Haryana
Manheru,123309,Bhiwani,Bhiwani,Haryana
Jhoju Kalan,123310,Bhiwani,Bhiwani,Haryana
Gokal Bazar Rewari,123401,Narnaul,Mohindergarh,Haryana
Model Town Rewari,123401,Narnaul,Mohindergarh,Haryana
Rewari,123401,Rewari,Mohindergarh,Haryana
Dahina,123411,Rewari,Rewari,Haryana
Dharan,123412,Narnaul,Mohindergarh,Haryana
Akheri Madanpur,123413,Narnaul,Mohindergarh,Haryana
Bahore Kalan,123413,Narnaul,Mohindergarh,Haryana
Nanu Kalan,123414,Narnaul,Mohindergarh,Haryana
Bawal,123501,Bawal,Mohindergarh,Haryana
Khalilpur,123502,Narnaul,Mohindergarh,Haryana
Pataudi,123503,Pataudi,Mohindergarh,Haryana
Haily Mandi,123504,Narnaul,Mohindergarh,Haryana
Garhi Harsaru,123505,Narnaul,Mohindergarh,Haryana
Farrukh Nagar,123506,Narnaul,Mohindergarh,Haryana
Daulatabad,123507,Gurgaon,Gurgaon,Haryana
Jatauli,123508,Gurgaon,Gurgaon,Haryana
Bus Stand Rohtak,124001,Rohtak,Rohtak,Haryana
D L F Colony Rohtak,124001,Rohtak,Rohtak,Haryana
Durga Bhawan Rohtk,124001,Rohtak,Rohtak,Haryana
Gandhi Camp Rohtak,124001,Rohtak,Rohtak,Haryana
Kanak Mandi Rohtak,124001,Rohtak,Rohtak,Haryana
Medical College,124001,Rohtak,Rohtak,Haryana
Model Town Rohtak,124001,Rohtak,Rohtak,Haryana
Rohtak,124001,Rohtak,Rohtak,Haryana
Rohtak,124001,Rohtak,Rohtak,Haryana
Rohtak Mandi,124001,Rohtak,Rohtak,Haryana
Rohtak Town,124001,Rohtak,Rohtak,Haryana
Shivaji Colony Rohtak,124001,Rohtak,Rohtak,Haryana
Sugar Mill Rohtak,124001,Rohtak,Rohtak,Haryana
Bhagwatipur,124002,Rohtak,Rohtak,Haryana
Vaish High Schl Rohtak,124003,Rohtak,Rohtak,Haryana
G K Singhpur,124004,Rohtak,Rohtak,Haryana
Titauli,124005,Rohtak,Rohtak,Haryana
Makrauli Kalan,124006,Rohtak,Rohtak,Haryana
Samargopalpur,124007,Rohtak,Rohtak,Haryana
Sunari Kalan,124008,Rohtak,Rohtak,Haryana
Asthal Bohar,124021,Rohtak,Rohtak,Haryana
Morkhra,124022,Rohtak,Rohtak,Haryana
Bohar,124023,Rohtak,Rohtak,Haryana
Lahli,124024,Rohtak,Rohtak,Haryana
Kharawal,124025,Rohtak,Rohtak,Haryana
Kharontha,124026,Rohtak,Rohtak,Haryana
Kheri Sadh,124027,Rohtak,Rohtak,Haryana
Basana,124028,Rohtak,Rohtak,Haryana
Baland,124029,Rohtak,Rohtak,Haryana
Gharauthi,124030,Rohtak,Rohtak,Haryana
Maina,124031,Rohtak,Rohtak,Haryana
Barhana,124101,Rohtak,Rohtak,Haryana
Dujana,124102,Rohtak,Rohtak,Haryana
Arya Nagar Jhajar,124103,Jhajjar,Jhajjar,Haryana
Arya Nagar Jhajjar,124103,Rohtak,Rohtak,Haryana
Jhajar,124103,Rohtak,Rohtak,Haryana
Jhajar HO,124103,Jhajjar,Jhajjar,Haryana
Silani Gate Jhajar,124103,Jhajjar,Jhajjar,Haryana
Silani Gate Jhajjar,124103,Rohtak,Rohtak,Haryana
Jhajjar,124104,Jhajjar,Rohtak,Haryana
Jhajjar,124104,Jhajjar,Jhajjar,Haryana
Nehru College,124104,Rohtak,Rohtak,Haryana
Nehru College,124104,Jhajjar,Jhajjar,Haryana
Badli,124105,Rohtak,Rohtak,Haryana
Dighal,124107,Rohtak,Rohtak,Haryana
Machhrauli,124108,Rohtak,Rohtak,Haryana
Dhakala,124109,Rohtak,Rohtak,Haryana
Bahu Akbarpur,124110,Rohtak,Rohtak,Haryana
Madina,124111,Rohtak,Rohtak,Haryana
Meham,124112,Rohtak,Rohtak,Haryana
Kalanaur,124113,Kalanaur,Rohtak,Haryana
Kharak Kalan,124114,Rohtak,Rohtak,Haryana
Subana,124116,Rohtak,Rohtak,Haryana
Birohar,124117,Rohtak,Rohtak,Haryana
Gochhi,124118,Rohtak,Rohtak,Haryana
Kultana,124119,Rohtak,Rohtak,Haryana
Bahlba,124120,Rohtak,Rohtak,Haryana
Kharkhera,124121,Rohtak,Rohtak,Haryana
Birdhana,124122,Rohtak,Rohtak,Haryana
Bhani Chanderpal,124123,Rohtak,Rohtak,Haryana
Katesra,124124,Rohtak,Rohtak,Haryana
Jhalri,124125,Rohtak,Rohtak,Haryana
Kalinga,124126,Rohtak,Rohtak,Haryana
Sisar Khas,124127,Rohtak,Rohtak,Haryana
Bhani Surjan,124128,Rohtak,Rohtak,Haryana
Saman,124129,Rohtak,Rohtak,Haryana
Sawan,124129,Rohtak,Rohtak,Haryana
Talao,124130,Rohtak,Rohtak,Haryana
Jhazgarh,124131,Rohtak,Rohtak,Haryana
Ritauli,124132,Rohtak,Rohtak,Haryana
M P Majra,124133,Rohtak,Rohtak,Haryana
Kheri Kumar,124134,Rohtak,Rohtak,Haryana
Daura Raja,124135,Rohtak,Rohtak,Haryana
Chimni,124136,Rohtak,Rohtak,Haryana
Bhadani,124137,Rohtak,Rohtak,Haryana
Jahangirpur,124138,Rohtak,Rohtak,Haryana
Mehrana,124139,Rohtak,Rohtak,Haryana
Silana,124140,Rohtak,Rohtak,Haryana
Khudan,124141,Rohtak,Rohtak,Haryana
Beri,124201,Beri,Rohtak,Haryana
Beri,124201,Jhajjar,Jhajjar,Haryana
Dobaldhan,124202,Rohtak,Rohtak,Haryana
Majra,124203,Rohtak,Rohtak,Haryana
Sewana,124204,Rohtak,Rohtak,Haryana
Pilana,124205,Rohtak,Rohtak,Haryana
Gohana,124301,Gohana,Sonepat,Haryana
Butana,124302,Sonepat,Sonepat,Haryana
Sanghi,124303,Rohtak,Rohtak,Haryana
Baroda,124304,Sonepat,Sonepat,Haryana
Khanpur,124305,Sonepat,Sonepat,Haryana
Mundlana,124306,Sonepat,Sonepat,Haryana
Mehmoodpur,124307,Rohtak,Rohtak,Haryana
Ahulana,124308,Rohtak,Rohtak,Haryana
Madiana,124309,Rohtak,Rohtak,Haryana
Bichpari,124310,Sonepat,Sonepat,Haryana
Barota,124311,Rohtak,Rohtak,Haryana
Khidwali,124312,Rohtak,Rohtak,Haryana
Jassia,124314,Rohtak,Rohtak,Haryana
Gangana,124315,Rohtak,Rohtak,Haryana
Garhwal,124316,Rohtak,Rohtak,Haryana
Glwana,124317,Rohtak,Rohtak,Haryana
Jauli,124318,Rohtak,Rohtak,Haryana
Kathura,124320,Rohtak,Rohtak,Haryana
Lath,124321,Rohtak,Rohtak,Haryana
Katwal,124322,Rohtak,Rohtak,Haryana
Kohla,124323,Rohtak,Rohtak,Haryana
Rabhra,124324,Rohtak,Rohtak,Haryana
Bindhana,124325,Rohtak,Rohtak,Haryana
Bhalaut,124401,Rohtak,Rohtak,Haryana
Kharkauda,124402,Sonepat,Sonepat,Haryana
Rohat,124403,Sonepat,Sonepat,Haryana
Hassangarh,124404,Rohtak,Rohtak,Haryana
Kiloi,124405,Rohtak,Rohtak,Haryana
Kansala,124406,Rohtak,Rohtak,Haryana
Sisana,124407,Rohtak,Rohtak,Haryana
Farmana,124408,Sonepat,Sonepat,Haryana
Bhainswal Kalan,124409,Sonepat,Sonepat,Haryana
Bidhal Pinana,124410,Rohtak,Rohtak,Haryana
Aval,124411,Rohtak,Rohtak,Haryana
Kahnaur,124412,Rohtak,Rohtak,Haryana
Anaj Mandi Jind,124413,Rohtak,Rohtak,Haryana
Anwali,124413,Rohtak,Rohtak,Haryana
Khanda,124413,Rohtak,Rohtak,Haryana
Bhadlan,124415,Sonepat,Sonepat,Haryana
Baliana,124416,Rohtak,Rohtak,Haryana
Paksma,124417,Rohtak,Rohtak,Haryana
Dobh,124418,Rohtak,Rohtak,Haryana
Kiloi,124419,Rohtak,Rohtak,Haryana
Bhanyani,124420,Rohtak,Rohtak,Haryana
Asan,124421,Rohtak,Rohtak,Haryana
Bholi Anandpur,124422,Rohtak,Rohtak,Haryana
Hamayunpur,124423,Rohtak,Rohtak,Haryana
Dhamar,124424,Rohtak,Rohtak,Haryana
Samchana,124425,Rohtak,Rohtak,Haryana
Rurki,124426,Rohtak,Rohtak,Haryana
Chirana,124427,Rohtak,Rohtak,Haryana
Rukhi,124428,Rohtak,Rohtak,Haryana
Rithal,124429,Sonepat,Sonepat,Haryana
Siwana Mall,124430,Sonepat,Sonepat,Haryana
Sampla,124501,Rohtak,Rohtak,Haryana
Rohad,124502,Rohtak,Rohtak,Haryana
Bhaprauda,124503,Rohtak,Rohtak,Haryana
Chhara,124504,Rohtak,Rohtak,Haryana
Assandah,124505,Rohtak,Rohtak,Haryana
Mandothi,124506,Rohtak,Rohtak,Haryana
Bahadurgar,124507,Rohtak,Rohtak,Haryana
Bahadurgarh,124507,Bahadurgarh,Rohtak,Haryana
Bahadurgarh,124507,Bahadurgarh,Jhajjar,Haryana
Bahadurgarh HO,124507,Jhajjar,Jhajjar,Haryana
Bahadurgarh Mandi,124507,Rohtak,Rohtak,Haryana
Bahadurgarh Mandi,124507,Jhajjar,Jhajjar,Haryana
Bahadurgrh,124507,Rohtak,Rohtak,Haryana
Industrial Area,124507,Rohtak,Rohtak,Haryana
Industrial Area,124507,Jhajjar,Jhajjar,Haryana
Main Bazar,124507,Rohtak,Rohtak,Haryana
Main Bazar,124507,Jhajjar,Jhajjar,Haryana
Noona Majra,124508,Rohtak,Rohtak,Haryana
Tandaheri,124509,Rohtak,Rohtak,Haryana
Matan,124510,Rohtak,Rohtak,Haryana
Kharhar,124511,Rohtak,Rohtak,Haryana
Nidana,124513,Rohtak,Rohtak,Haryana
Lakhan Majra,124514,Rohtak,Rohtak,Haryana
Nigana,124515,Rohtak,Rohtak,Haryana
Rohad,124515,Rohtak,Rohtak,Haryana
Gorawar,124516,Rohtak,Rohtak,Haryana
Ismaila,124517,Rohtak,Rohtak,Haryana
Barain,124518,Rohtak,Rohtak,Haryana
Bainsi,124519,Rohtak,Rohtak,Haryana
Farmana,124520,Rohtak,Rohtak,Haryana
Atail,124521,Rohtak,Rohtak,Haryana
Ajaib,124522,Rohtak,Rohtak,Haryana
Chandi,124523,Rohtak,Rohtak,Haryana
Chiri,124524,Rohtak,Rohtak,Haryana
Barahi,124525,Rohtak,Rohtak,Haryana
Bhupani,124526,Rohtak,Rohtak,Haryana
Chaushala,124527,Rohtak,Rohtak,Haryana
Chuliana,124527,Rohtak,Rohtak,Haryana
Dulhera,124528,Rohtak,Rohtak,Haryana
Escort Nagar,124528,Rohtak,Rohtak,Haryana
Gandhra,124529,Sonepat,Sonepat,Haryana
Kanaunda,124530,Rohtak,Rohtak,Haryana
Nilauthi,124531,Rohtak,Rohtak,Haryana
Rohna,124532,Sonepat,Sonepat,Haryana
Kharainti,124533,Rohtak,Rohtak,Haryana
Hissar,125001,Hissar,Hissar,Haryana
Hissar City,125001,Hissar,Hissar,Haryana
Hissar Kutchery,125001,Hissar,Hissar,Haryana
Hissar Nai Mandi,125001,Hissar,Hissar,Haryana
Mini Sectt Hissar,125001,Hissar,Hissar,Haryana
Multani Chowk Hissar,125001,Hissar,Hissar,Haryana
Hissar Textile Mills,125002,Hissar,Hissar,Haryana
Patel Nagar Hissar,125003,Hissar,Hissar,Haryana
Hissar Agricultural Unive,125004,Hissar,Hissar,Haryana
Model Town Hissar,125005,Hissar,Hissar,Haryana
Hissar B S F,125011,Hissar,Hissar,Haryana
Arya Nagar Hissar,125012,Hissar,Hissar,Haryana
Dulat,125012,Hissar,Hissar,Haryana
Bhiwan Jain Chowk,125021,Bhiwani,Bhiwani,Haryana
Bhiwani,125021,Bhiwani,Bhiwani,Haryana
Bhiwani Bus Stand,125021,Bhiwani,Bhiwani,Haryana
Bhiwani Halu Bazar,125021,Bhiwani,Bhiwani,Haryana
Bhiwani Lohar Bazar,125021,Bhiwani,Bhiwani,Haryana
Bhiwani,125022,Bhiwani,Bhiwani,Haryana
Biron,125023,Bhiwani,Bhiwani,Haryana
Dinod,125024,Bhiwani,Bhiwani,Haryana
Devsar,125025,Bhiwani,Bhiwani,Haryana
Bapora,125026,Bhiwani,Bhiwani,Haryana
Chang,125027,Bhiwani,Bhiwani,Haryana
Behal,125028,Bhiwani,Bhiwani,Haryana
Kairu,125029,Bhiwani,Bhiwani,Haryana
Jui Khurd,125030,Bhiwani,Bhiwani,Haryana
Tigrana,125031,Bhiwani,Bhiwani,Haryana
Bawani Khera,125032,Bawani Khera,Bhiwani,Haryana
Hansi,125033,Hansi,Hissar,Haryana
Tehsil Court Hansi,125033,Hissar,Hissar,Haryana
Road Hansi,125034,Hissar,Hissar,Haryana
Jamalpur,125035,Hissar,Hissar,Haryana
Deorala,125036,Bhiwani,Bhiwani,Haryana
Nalwa,125037,Bhiwani,Bhiwani,Haryana
Khanda Khuri,125038,Hissar,Hissar,Haryana
Narnaund,125039,Narnaund,Hissar,Haryana
Tosham,125040,Tosham,Bhiwani,Haryana
Mundal Khurd,125041,Bhiwani,Bhiwani,Haryana
Bass,125042,Hissar,Hissar,Haryana
Rodhan,125043,Bhiwani,Bhiwani,Haryana
Satrod Khurd,125044,Hissar,Hissar,Haryana
Barwa,125045,Bhiwani,Bhiwani,Haryana
Sewani,125046,Bhiwani,Bhiwani,Haryana
Agroha,125047,Hissar,Hissar,Haryana
Badopal,125048,Hissar,Hissar,Haryana
Sisai,125049,Hissar,Hissar,Haryana
Fatehabad,125050,Fatehabad,Sirsa,Haryana
Fatehbad,125050,Fatehbad,Fatehabad,Haryana
Fatehbad Kutchery,125050,Sirsa,Sirsa,Haryana
Fatehbad Kutchery,125050,Fatehbad,Fatehabad,Haryana
Nai Mandi Fatehbad,125050,Sirsa,Sirsa,Haryana
Rattia,125051,Sirsa,Sirsa,Haryana
Mandi Adampur,125052,Sirsa,Sirsa,Haryana
Bhattu Kalan,125053,Sirsa,Sirsa,Haryana
Bahudin,125054,Sirsa,Sirsa,Haryana
Nai Mandi Sirsa,125055,Sirsa,Sirsa,Haryana
Sirsa,125055,Sirsa,Sirsa,Haryana
Sirsa Courts,125055,Sirsa,Sirsa,Haryana
Sirsa Town,125055,Sirsa,Sirsa,Haryana
Sirsa,125056,Sirsa,Sirsa,Haryana
Khairpur,125057,Sirsa,Sirsa,Haryana
Ding,125058,Sirsa,Sirsa,Haryana
Sikanderpur,125060,Sirsa,Sirsa,Haryana
Bamla,125061,Bhiwani,Bhiwani,Haryana
Bhanana,125062,Sirsa,Sirsa,Haryana
Dhanana,125062,Sirsa,Sirsa,Haryana
Dhani,125063,Bhiwani,Bhiwani,Haryana
Dhigwan Jatan,125064,Bhiwani,Bhiwani,Haryana
Lohni,125065,Bhiwani,Bhiwani,Haryana
Mehnda,125066,Bhiwani,Bhiwani,Haryana
Rewasa,125067,Bhiwani,Bhiwani,Haryana
Sorkhi,125068,Hissar,Hissar,Haryana
Bassi,125069,Hissar,Hissar,Haryana
Bhatla,125070,Hissar,Hissar,Haryana
Dhana Kalan,125071,Bhiwani,Bhiwani,Haryana
Kumbha,125072,Bhiwani,Bhiwani,Haryana
Mirchpur,125073,Hissar,Hissar,Haryana
Petwar,125074,Bhiwani,Bhiwani,Haryana
Sri Jiwan Nagar,125075,Sirsa,Sirsa,Haryana
Rania,125076,Rania,Sirsa,Haryana
Odban,125077,Sirsa,Sirsa,Haryana
Baragudah,125078,Sirsa,Sirsa,Haryana
Haroli,125079,Hissar,Hissar,Haryana
Bighar,125080,Hissar,Hissar,Haryana
Chanot,125081,Hissar,Hissar,Haryana
Puthi Mangal Khan,125082,Hissar,Hissar,Haryana
Umra,125083,Hissar,Hissar,Haryana
Jamauri,125084,Hissar,Hissar,Haryana
Kharar Ailapur,125086,Hissar,Hissar,Haryana
Ladwa,125087,Ladwa,Hissar,Haryana
Mohamadpur Rohi,125088,Hissar,Hissar,Haryana
Chautala,125101,Sirsa,Sirsa,Haryana
Ellenabad,125102,Ellenabad,Sirsa,Haryana
Goriwala,125103,Sirsa,Sirsa,Haryana
Mandi Dabwali,125104,Mandi Dabwali,Sirsa,Haryana
Mandi Township,125104,Sirsa,Sirsa,Haryana
Mangali,125105,Hissar,Hissar,Haryana
Dharsul Kalan,125106,Sirsa,Sirsa,Haryana
Abushahar,125107,Hissar,Hissar,Haryana
Hazarawan Kalan,125108,Hissar,Hissar,Haryana
Mohbatpur,125109,Hissar,Hissar,Haryana
Safidon,125112,Safidon,Hissar,Haryana
Safindon City,125112,Hissar,Hissar,Haryana
Kalanwali,125201,Hissar,Hissar,Haryana
Rori,125202,Sirsa,Sirsa,Haryana
Amritsar Khan,125203,Sirsa,Sirsa,Haryana
Anaj Mandi,125203,Sirsa,Sirsa,Haryana
Jakhal Mandi,126001,Jakhal Mandi,Hissar,Haryana
Daulatpur,126006,Hissar,Hissar,Haryana
Pabra,126007,Hissar,Hissar,Haryana
Bhuna,126008,Hissar,Hissar,Haryana
Uklana Mandi,126009,Hissar,Hissar,Haryana
Barwala,126010,Barwala,Hissar,Haryana
Barwala Mandi,126011,Hissar,Hissar,Haryana
Khedar,126013,Hissar,Hissar,Haryana
Rajli,126014,Hissar,Hissar,Haryana
Prabhuwala,126015,Hissar,Hissar,Haryana
Nehla,126025,Hissar,Hissar,Haryana
Hassangarh,126027,Hissar,Hissar,Haryana
Julana,126101,Julana,Jind,Haryana
Chaura Kuam Jind,126102,Jind,Jind,Haryana
Jind Ho,126102,Jind,Jind,Haryana
Jind Railway Station,126102,Jind,Jind,Haryana
Punjabi Bazar Jind,126102,Jind,Jind,Haryana
Rohtak Road Jind,126102,Jind,Jind,Haryana
Bibipur,126103,Jind,Jind,Haryana
Deorad,126104,Jind,Jind,Haryana
Igrah,126105,Jind,Jind,Haryana
Kandela,126106,Jind,Jind,Haryana
Kilazafargarh,126107,Jind,Jind,Haryana
Malui,126108,Jind,Jind,Haryana
Pauli,126109,Jind,Jind,Haryana
Ram Rai,126110,Jind,Jind,Haryana
Shahpur,126111,Jind,Jind,Haryana
Pilukhera,126113,Jind,Jind,Haryana
Shamlo Kalan,126114,Jind,Jind,Haryana
Uchana,126115,Uchana,Jind,Haryana
Nangal Fertilizer,126116,Jind,Jind,Haryana
Narwana,126116,Narwana,Jind,Haryana
Kalayar,126117,Jind,Jind,Haryana
Dhamta Sahib,126118,Jind,Jind,Haryana
Tohana,126119,Tohana,Jind,Haryana
Tohanamandi,126120,Hissar,Hissar,Haryana
Kalwa,126121,Jind,Jind,Haryana
Kanheri,126122,Jind,Jind,Haryana
Samain,126123,Jind,Jind,Haryana
Baroda Jind,126124,Jind,Jind,Haryana
Balerkha,126126,Jind,Jind,Haryana
Dablain,126127,Jind,Jind,Haryana
Dhakal,126128,Jind,Jind,Haryana
Didwara,126129,Jind,Jind,Haryana
Gangooli,126130,Jind,Jind,Haryana
Garhwali,126131,Jind,Jind,Haryana
Ghatauli,126132,Jind,Jind,Haryana
Kalayat Mandi,126133,Jind,Jind,Haryana
Kharak Pandwan,126134,Kaithal,Kaithal,Haryana
Lawan,126135,Jind,Jind,Haryana
Khatkar,126136,Jind,Jind,Haryana
Seemla,126139,Jind,Jind,Haryana
Ujhana,126140,Jind,Jind,Haryana
Hat,126141,Jind,Jind,Haryana
Dhigana,126143,Jind,Jind,Haryana
Balu,126145,Jind,Jind,Haryana
Bhambeva,126146,Jind,Jind,Haryana
Budha Khera,126147,Jind,Jind,Haryana
Bithmara,126148,Jind,Jind,Haryana
Singhana,126149,Jind,Jind,Haryana
Sewaha,126150,Jind,Jind,Haryana
Badanpur,126151,Jind,Jind,Haryana
Dhanoda Kalan,126152,Jind,Jind,Haryana
Danoda,126153,Jind,Jind,Haryana
Dharaudhi,126154,Jind,Jind,Haryana
Atlas Cycles Sonepat,131001,Sonepat,Sonepat,Haryana
Bhim Nagar Sonepat,131001,Sonepat,Sonepat,Haryana
Ganj Bazar Sonepat,131001,Sonepat,Sonepat,Haryana
Gohana Road Sonepat,131001,Sonepat,Sonepat,Haryana
Industrial Area Sonepat,131001,Sonepat,Sonepat,Haryana
Model Town,131001,Sonepat,Sonepat,Haryana
Ram Bazar Sonepat,131001,Sonepat,Sonepat,Haryana
Sonepat,131001,Sonepat,Sonepat,Haryana
Sonepat Kutchery,131001,Sonepat,Sonepat,Haryana
Bahalgarh,131021,Sonepat,Sonepat,Haryana
Bhatgaon,131022,Sonepat,Sonepat,Haryana
Jakhauli,131023,Sonepat,Sonepat,Haryana
Juan,131024,Sonepat,Sonepat,Haryana
Mohana,131025,Sonepat,Sonepat,Haryana
Jaswarkheri,131026,Sonepat,Sonepat,Haryana
Murthal,131027,Sonepat,Sonepat,Haryana
Kundli,131028,Sonepat,Sonepat,Haryana
P S Rai,131029,Sonepat,Sonepat,Haryana
Rathdana,131030,Sonepat,Sonepat,Haryana
Rattan Garh,131031,Sonepat,Sonepat,Haryana
Pipli Khera,131032,Sonepat,Sonepat,Haryana
Bhagan,131033,Sonepat,Sonepat,Haryana
Barabansi,131034,Sonepat,Sonepat,Haryana
Harsana Kalan,131035,Sonepat,Sonepat,Haryana
Lehrana,131036,Sonepat,Sonepat,Haryana
Khewra,131037,Sonepat,Sonepat,Haryana
Pipli,131038,Sonepat,Sonepat,Haryana
Ganaur,131101,Ganaur,Sonepat,Haryana
Ganaur City,131101,Sonepat,Sonepat,Haryana
Purkhas,131102,Sonepat,Sonepat,Haryana
Nahri,131103,Sonepat,Sonepat,Haryana
Akbarpur Barota,131104,Sonepat,Sonepat,Haryana
Bega,131105,Sonepat,Sonepat,Haryana
Bhidlan,131106,Sonepat,Sonepat,Haryana
Khanda,131107,Sonepat,Sonepat,Haryana
Chhetera Bhadupur,131108,Sonepat,Sonepat,Haryana
Datauli,131109,Sonepat,Sonepat,Haryana
Ghasauli,131110,Sonepat,Sonepat,Haryana
Kheri Gujar,131111,Sonepat,Sonepat,Haryana
Kakaroi,131112,Sonepat,Sonepat,Haryana
Gopalpur,131113,Sonepat,Sonepat,Haryana
Mehlana,131114,Sonepat,Sonepat,Haryana
Chulkana,131115,Sonepat,Sonepat,Haryana
Karnal,132001,Karnal,Karnal,Haryana
Karnal City,132001,Karnal,Karnal,Haryana
Karnal G B S,132001,Karnal,Karnal,Haryana
Karnal Industrial Area,132001,Karnal,Karnal,Haryana
Karnal Kutchery,132001,Karnal,Karnal,Haryana
Karnal M T,132001,Karnal,Karnal,Haryana
Karnal Nai Mandi,132001,Karnal,Karnal,Haryana
Karnal Ndri,132001,Karnal,Karnal,Haryana
Karnal Partappura,132001,Karnal,Karnal,Haryana
Karnal Ramnagar,132001,Karnal,Karnal,Haryana
Karnal Sadar Bazar,132001,Karnal,Karnal,Haryana
Sanghowa,132002,Karnal,Karnal,Haryana
Dhand,132020,Kaithal,Kaithal,Haryana
Kaul,132021,Kaithal,Kaithal,Haryana
Kaul,132021,Kurukshetra,Kurukshetra,Haryana
Pharal,132021,Kaithal,Kaithal,Haryana
Kunjpura,132022,Karnal,Karnal,Haryana
Nilokhery Govt Press,132024,Karnal,Karnal,Haryana
Nissing,132024,Karnal,Karnal,Haryana
Kachhawa,132025,Karnal,Karnal,Haryana
Fatehpur,132026,Kaithal,Kaithal,Haryana
Pundri,132026,Pundri,Kaithal,Haryana
Pundri,132026,Kurukshetra,Kurukshetra,Haryana
Kaithal,132027,Kaithal,Kaithal,Haryana
Kaithal,132027,Kurukshetra,Kurukshetra,Haryana
Kaithal Mandi,132027,Kurukshetra,Kurukshetra,Haryana
Siwan,132027,Kaithal,Kaithal,Haryana
Siwan Gate Kaithal,132027,Kurukshetra,Kurukshetra,Haryana
Thana,132029,Kaithal,Kaithal,Haryana
Thana,132029,Kaithal,Kaithal,Haryana
Keorak,132032,Kaithal,Kaithal,Haryana
Keorak,132032,Kaithal,Kaithal,Haryana
Chika,132034,Kurukshetra,Kurukshetra,Haryana
Guhla,132035,Kurukshetra,Kurukshetra,Haryana
Gula,132035,Kaithal,Kaithal,Haryana
Jundla,132036,Karnal,Karnal,Haryana
Madhuban,132037,Karnal,Karnal,Haryana
Amin,132038,Karnal,Karnal,Haryana
Assandh,132039,Assandh,Karnal,Haryana
Ballah,132040,Karnal,Karnal,Haryana
Indri Industrial Area,132041,Karnal,Karnal,Haryana
Fatehpur,132042,Kaithal,Kaithal,Haryana
Fatehpur,132042,Kurukshetra,Kurukshetra,Haryana
Pai,132043,Kaithal,Kaithal,Haryana
Pai,132043,Kurukshetra,Kurukshetra,Haryana
Rajaund,132044,Kurukshetra,Kurukshetra,Haryana
Mowana,132045,Jind,Jind,Haryana
Salwan,132046,Karnal,Karnal,Haryana
Jakoli,132047,Panipat,Panipat,Haryana
Pabnawa,132048,Panipat,Panipat,Haryana
Manas,132049,Panipat,Panipat,Haryana
Gheer,132050,Panipat,Panipat,Haryana
Munak,132051,Panipat,Panipat,Haryana
Gonder,132052,Panipat,Panipat,Haryana
Kheri Sherifali,132053,Panipat,Panipat,Haryana
Gondhar,132058,Panipat,Panipat,Haryana
Samalkha,132101,Samalkha,Panipat,Haryana
Patti Kalan,132102,Panipat,Panipat,Haryana
Panipat,132103,Panipat,Karnal,Haryana
Panipat Bus Stand,132103,Karnal,Karnal,Haryana
Panipat City,132103,Karnal,Karnal,Haryana
Panipat K Nagar,132103,Karnal,Karnal,Haryana
Panipat Khadi Ashram,132103,Karnal,Karnal,Haryana
Panipat Krishnapur,132103,Karnal,Karnal,Haryana
Panipat Mandi,132103,Karnal,Karnal,Haryana
Panipat Model Town,132103,Karnal,Karnal,Haryana
Panipat N F L,132103,Karnal,Karnal,Haryana
Panipat N S M,132103,Karnal,Karnal,Haryana
Panipat Sugar Mill,132103,Karnal,Karnal,Haryana
Panipat Town,132103,Karnal,Karnal,Haryana
Panipat G T Road,132104,Karnal,Karnal,Haryana
Panipat Thermal,132104,Karnal,Karnal,Haryana
Project Plan,132105,Karnal,Karnal,Haryana
Project Panipat,132106,Karnal,Karnal,Haryana
Panipat,132108,Karnal,Karnal,Haryana
Chulkana,132109,Panipat,Panipat,Haryana
Sewah,132110,Panipat,Panipat,Haryana
Alewa,132111,Karnal,Karnal,Haryana
Gharaunda,132111,Gharaunda,Karnal,Haryana
Dhatrat,132112,Karnal,Karnal,Haryana
Madlanda,132113,Karnal,Karnal,Haryana
Hathwala,132115,Karnal,Karnal,Haryana
Tarauri,132116,Karnal,Karnal,Haryana
Tarauri Mandi,132116,Karnal,Karnal,Haryana
Nilokheri,132117,Nilokheri,Karnal,Haryana
Engg College Kurukshetra,132118,Kurukshetra,Kurukshetra,Haryana
Kurukshetra,132118,Kurukshetra,Kurukshetra,Haryana
Thanesar Town,132118,Kurukshetra,Kurukshetra,Haryana
Kurukshetra University,132119,Kurukshetra,Kurukshetra,Haryana
Jyotisar,132120,Kaithal,Kaithal,Haryana
Jyotisar,132120,Kurukshetra,Kurukshetra,Haryana
Naguran,132121,Kaithal,Kaithal,Haryana
Naguran,132121,Karnal,Karnal,Haryana
Ghiar,132123,Kaithal,Kaithal,Haryana
Rambha,132123,Kaithal,Kaithal,Haryana
Rambha,132123,Karnal,Karnal,Haryana
Tirawari,132123,Kaithal,Kaithal,Haryana
Vehana,132124,Karnal,Karnal,Haryana
Saunkra,132125,Karnal,Karnal,Haryana
Pehowa,132128,Pehowa,Kurukshetra,Haryana
Ismailabad,132129,Kurukshetra,Kurukshetra,Haryana
Byana,132130,Kurukshetra,Kurukshetra,Haryana
Jhansa,132130,Kurukshetra,Kurukshetra,Haryana
Pipli,132131,Kurukshetra,Kurukshetra,Haryana
Ladwa,132132,Ladwa,Kurukshetra,Haryana
Radaur,132133,Radaur,Kurukshetra,Haryana
Daula,132134,Kurukshetra,Kurukshetra,Haryana
Shahbad G T R,132135,Kurukshetra,Kurukshetra,Haryana
Shahbad Grain,132135,Kurukshetra,Kurukshetra,Haryana
Shahbad Markhanda,132135,Kurukshetra,Kurukshetra,Haryana
Thol,132136,Kurukshetra,Kurukshetra,Haryana
Umri,132137,Kurukshetra,Kurukshetra,Haryana
Habri,132138,Kaithal,Kaithal,Haryana
Habri,132138,Karnal,Karnal,Haryana
Bursham,132139,Karnal,Karnal,Haryana
Biholi,132140,Karnal,Karnal,Haryana
Buana Lakhu,132141,Karnal,Karnal,Haryana
Dahar,132142,Karnal,Karnal,Haryana
Dikadia,132143,Karnal,Karnal,Haryana
Jaurasi,132144,Karnal,Karnal,Haryana
Naultha,132145,Karnal,Karnal,Haryana
Ahar,132146,Karnal,Karnal,Haryana
Kurar,132147,Karnal,Karnal,Haryana
Kohand,132148,Karnal,Karnal,Haryana
Mahoti,132149,Karnal,Karnal,Haryana
Naraina,132150,Karnal,Karnal,Haryana
Noorwala,132151,Karnal,Karnal,Haryana
Rampura,132152,Karnal,Karnal,Haryana
Sonepat Mandi,132153,Karnal,Karnal,Haryana
Staundi,132153,Karnal,Karnal,Haryana
Babail,132154,Karnal,Karnal,Haryana
Kurana,132155,Panipat,Panipat,Haryana
Ambala,133001,Ambala,Ambala,Haryana
Ambala A K Lines,133001,Ambala,Ambala,Haryana
Ambala Alexendra Road,133001,Ambala,Ambala,Haryana
Ambala B C Bazar,133001,Ambala,Ambala,Haryana
Ambala Cantt,133001,Ambala,Ambala,Haryana
Ambala Hargolal,133001,Ambala,Ambala,Haryana
Ambala I A F Lines,133001,Ambala,Ambala,Haryana
Ambala Kacha Bazar,133001,Ambala,Ambala,Haryana
Ambala Lal Kurti Bzr,133001,Ambala,Ambala,Haryana
Ambala Mahesh,133001,Ambala,Ambala,Haryana
Ambala P&T Colony,133001,Ambala,Ambala,Haryana
Ambala Punjabi,133001,Ambala,Ambala,Haryana
Ambala Sadar Bazar,133001,Ambala,Ambala,Haryana
Ambala Topkhana,133001,Ambala,Ambala,Haryana
Commissioner Court,133001,Ambala,Ambala,Haryana
Mohalla,133001,Ambala,Ambala,Haryana
Ambala Cantt,133004,Ambala,Ambala,Haryana
Babyal,133005,Ambala,Ambala,Haryana
Boh,133021,Ambala,Ambala,Haryana
Bihta,133101,Ambala,Ambala,Haryana
Kesri,133102,Ambala,Ambala,Haryana
Mustafabad,133102,Mustafabad,Ambala,Haryana
Saha,133104,Ambala,Ambala,Haryana
Kalawar,133105,Ambala,Ambala,Haryana
Barara,133201,Ambala,Ambala,Haryana
Dhin,133202,Ambala,Ambala,Haryana
Mullana,133203,Ambala,Ambala,Haryana
Sadhaura,133204,Ambala,Ambala,Haryana
Adhoya,133205,Ambala,Ambala,Haryana
Sarawan,133206,Ambala,Ambala,Haryana
Ugala,133207,Ambala,Ambala,Haryana
Thambar,133208,Ambala,Ambala,Haryana
B C W Surajpur,133301,Ambala,Ambala,Haryana
Beas Project,133301,Ambala,Ambala,Haryana
Kaika Railway Station,133302,Ambala,Ambala,Haryana
Kalka,133302,Kalka,Ambala,Haryana
Kalka,133302,Panchkula,Panchkula,Haryana
Kalka Railway Station,133302,Panchkula,Panchkula,Haryana
Ambala City,134002,Ambala,Ambala,Haryana
Ambala City Kuthchery,134002,Ambala,Ambala,Haryana
Bazar Basti Ram,134002,Ambala,Ambala,Haryana
Civil Lines,134002,Ambala,Ambala,Haryana
D A V College,134002,Ambala,Ambala,Haryana
Motor Stand,134002,Ambala,Ambala,Haryana
Patel Nagar,134002,Ambala,Ambala,Haryana
Railway Road,134002,Ambala,Ambala,Haryana
Sabji Mandi,134002,Ambala,Ambala,Haryana
Ambala City,134003,Ambala,Ambala,Haryana
Ambala City Model Town,134003,Ambala,Ambala,Haryana
Ambala City Prem,134003,Ambala,Ambala,Haryana
Ambala City Session,134003,Ambala,Ambala,Haryana
Baldev Nagar,134007,Ambala,Ambala,Haryana
Panjokhera,134011,Ambala,Ambala,Haryana
Maneola,134012,Ambala,Ambala,Haryana
Pinjore H M T,134101,Ambala,Ambala,Haryana
Pinjore,134102,Pinjore,Ambala,Haryana
Crpf Punjore,134104,Ambala,Ambala,Haryana
Chandi Mandir,134107,Ambala,Ambala,Haryana
Panchkula Gurukul,134108,Ambala,Ambala,Haryana
Panchkula,134109,Ambala,Ambala,Haryana
Bhabat,134110,Ambala,Ambala,Haryana
Panchkula Sec 4,134112,Ambala,Ambala,Haryana
Panchkula Sec 15,134113,Ambala,Ambala,Haryana
Barwala,134118,Barwala,Ambala,Haryana
Jatwar,134201,Ambala,Ambala,Haryana
Shahzadpur,134202,Ambala,Ambala,Haryana
Naraingarh,134203,Naraingarh,Ambala,Haryana
Raipur Rani,134204,Raipur Rani,Ambala,Haryana
Morni,134205,Ambala,Ambala,Haryana
Patrehri,134206,Ambala,Ambala,Haryana
Auto Industries,135001,Ambala,Ambala,Haryana
Yamua Ngr Bhatia Ngr,135001,Ambala,Ambala,Haryana
Yamuna Nagar,135001,Ambala,Ambala,Haryana
Yamuna Nagar Rlwy Rd,135001,Ambala,Ambala,Haryana
Yamuna Nagar Sugar Mls,135001,Ambala,Ambala,Haryana
Yamuna Ngr Rampura Clny,135001,Ambala,Ambala,Haryana
Yamuna Ngr Workshop Rd,135001,Ambala,Ambala,Haryana
Jagadhri Courts,135002,Ambala,Ambala,Haryana
Jagadhri Courts,135002,Yamunanagar,Yamunanagar,Haryana
Jagadhri Workshop,135002,Ambala,Ambala,Haryana
Jagadhri Workshop,135002,Yamunanagar,Yamunanagar,Haryana
Jagadhri,135003,Jagadhri,Ambala,Haryana
Jagadhri,135003,Yamunanagar,Yamunanagar,Haryana
Jagadhri Town,135003,Ambala,Ambala,Haryana
Jagadhri Town,135003,Yamunanagar,Yamunanagar,Haryana
Khizrabad East,135021,Ambala,Ambala,Haryana
Buriya,135101,Ambala,Ambala,Haryana
Bilaspur,135102,Bilaspur,Ambala,Haryana
Chhachhrauli,135103,Chhachhrauli,Ambala,Haryana
Chhachhrauli,135103,Chhachhrauli,Yamunanagar,Haryana
Dadupur,135104,Ambala,Ambala,Haryana
Kharwan,135105,Ambala,Ambala,Haryana
Rup Nagar College,140001,Rupnagar,Rupnagar,Punjab
Rup Ngr Motar Terminus,140001,Rupnagar,Rupnagar,Punjab
Rupar H O,140001,Rupnagar,Rupnagar,Punjab
Morinda,140101,Morinda,Rupnagar,Punjab
Lutheri,140102,Rupnagar,Rupnagar,Punjab
Kurali,140103,Kurali,Rupnagar,Punjab
Sahauran,140104,Rupnagar,Rupnagar,Punjab
Mainpur,140108,Rupnagar,Rupnagar,Punjab
Khizrabad West,140109,Rupnagar,Rupnagar,Punjab
Sialba Majri,140110,Rupnagar,Rupnagar,Punjab
Bela,140111,Rupnagar,Rupnagar,Punjab
Chamkaur Sahib,140112,Rupnagar,Rupnagar,Punjab
Ghanauli,140113,Rupnagar,Rupnagar,Punjab
Bharatgarh,140114,Rupnagar,Rupnagar,Punjab
Kiratpur Sahib,140115,Rupnagar,Rupnagar,Punjab
Kotla Power House,140116,Rupnagar,Rupnagar,Punjab
Nurpur Bedi,140117,Rupnagar,Rupnagar,Punjab
Anandpur Sahib,140118,Anandpur Sahib,Rupnagar,Punjab
Takhatgarh,140119,Rupnagar,Rupnagar,Punjab
Ganguwal,140123,Rupnagar,Rupnagar,Punjab
Colony,140124,Rupnagar,Rupnagar,Punjab
Nangal Dam,140124,Rupnagar,Rupnagar,Punjab
Nangal Labour,140124,Rupnagar,Rupnagar,Punjab
Nangal Township,140124,Rupnagar,Rupnagar,Punjab
Nangal,140125,Nangal,Rupnagar,Punjab
F F Nangal,140126,Rupnagar,Rupnagar,Punjab
Nangal Factory Area,140126,Rupnagar,Rupnagar,Punjab
Nangal Sector 2,140126,Rupnagar,Rupnagar,Punjab
Naya Nangal,140126,Rupnagar,Rupnagar,Punjab
Mubarikpur,140201,Rupnagar,Rupnagar,Punjab
Ramgarh,140202,Rupnagar,Rupnagar,Punjab
Bhankarpur,140203,Rupnagar,Rupnagar,Punjab
Kharar,140301,Kharar,Rupnagar,Punjab
Kharar Mills Road,140301,Kharar,Rupnagar,Punjab
Manauli,140306,Rupnagar,Rupnagar,Punjab
Landran,140307,Rupnagar,Rupnagar,Punjab
Sohana,140308,Rupnagar,Rupnagar,Punjab
Industrial Area,140401,Patiala,Patiala,Punjab
Industrial Focal Point,140401,Patiala,Patiala,Punjab
Rajpura,140401,Rajpura,Patiala,Punjab
Rajpura H O,140401,Rajpura,Patiala,Punjab
Rajpura Township,140401,Rajpura,Patiala,Punjab
Sangatpursodhian,140405,Patiala,Patiala,Punjab
Hamayunpur,140406,Patiala,Patiala,Punjab
Sirhind,140406,Patiala,Patiala,Punjab
Sirhind City,140407,Patiala,Patiala,Punjab
Bassi,140412,Fatehgarh Sahib,Fatehgarh Sahib,Punjab
Gharuan,140413,Rupnagar,Rupnagar,Punjab
Shambhu,140417,Patiala,Patiala,Punjab
Lairu,140501,Patiala,Patiala,Punjab
Handesra,140502,Patiala,Patiala,Punjab
Dappar Ammunition Depot,140506,Patiala,Patiala,Punjab
Banur,140601,Patiala,Patiala,Punjab
Manakpur,140602,Patiala,Patiala,Punjab
Kauli,140701,Patiala,Patiala,Punjab
Ghanaur,140702,Ghanaur,Patiala,Punjab
Khamano Kalan,140801,Ludhiana,Ludhiana,Punjab
Sanghol,140802,Fatehgarh Sahib,Fatehgarh Sahib,Punjab
Mullanpur,140901,Fatehgarh Sahib,Fatehgarh Sahib,Punjab
Bharat Nagar,141001,Ludhiana,Ludhiana,Punjab
Chander Nagar,141001,Ludhiana,Ludhiana,Punjab
Civil Lines,141001,Ludhiana,Ludhiana,Punjab
Durga Puri,141001,Ludhiana,Ludhiana,Punjab
Gurdev Nagar,141001,Ludhiana,Ludhiana,Punjab
Ludhiana,141001,Ludhiana,Ludhiana,Punjab
Ludhiana Bus Stand,141001,Ludhiana,Ludhiana,Punjab
Ludhiana H O,141001,Ludhiana,Ludhiana,Punjab
Ludhiana Kutchery,141001,Ludhiana,Ludhiana,Punjab
P & T Colony Ludhiana,141001,Ludhiana,Ludhiana,Punjab
Sat Sang Rd Ludhiana,141001,Ludhiana,Ludhiana,Punjab
Sidhpeeth Ludhiana,141001,Ludhiana,Ludhiana,Punjab
Colony Ropar,141002,Ludhiana,Ludhiana,Punjab
Abdullapur Basti,141003,Ludhiana,Ludhiana,Punjab
G T Road Ludhiana,141003,Ludhiana,Ludhiana,Punjab
Industrial Colony Ludhiana,141003,Ludhiana,Ludhiana,Punjab
Industrial Estate,141003,Ludhiana,Ludhiana,Punjab
Janta Nagar,141003,Ludhiana,Ludhiana,Punjab
Labour Colony,141003,Ludhiana,Ludhiana,Punjab
Ludhiana,141003,Ludhiana,Ludhiana,Punjab
Millerganj,141003,Ludhiana,Ludhiana,Punjab
P A P Lines,141004,Ludhiana,Ludhiana,Punjab
P A U Ludhiana,141004,Ludhiana,Ludhiana,Punjab
Ludhiana,141005,Ludhiana,Ludhiana,Punjab
Neta Ji Nagar,141005,Ludhiana,Ludhiana,Punjab
Salem Tabri,141005,Ludhiana,Ludhiana,Punjab
Guru Nanak Engineering College,141006,Ludhiana,Ludhiana,Punjab
Ludhiana,141007,Ludhiana,Ludhiana,Punjab
Bagh Khazanchian,141008,Ludhiana,Ludhiana,Punjab
Baini Ram Street,141008,Ludhiana,Ludhiana,Punjab
Brahampuri Ludhiana,141008,Ludhiana,Ludhiana,Punjab
C M C Ludhiana,141008,Ludhiana,Ludhiana,Punjab
Girson Knitting Works,141008,Ludhiana,Ludhiana,Punjab
Ikbalganj Ludhiana,141008,Ludhiana,Ludhiana,Punjab
Jail Rd Ludhiana,141008,Ludhiana,Ludhiana,Punjab
Jalpat Rai Market,141008,Ludhiana,Ludhiana,Punjab
Kidwai Nagar,141008,Ludhiana,Ludhiana,Punjab
Ludhiana,141008,Ludhiana,Ludhiana,Punjab
Ludhiana Central,141008,Ludhiana,Ludhiana,Punjab
Madhopuri Ludhiana,141008,Ludhiana,Ludhiana,Punjab
Samrala Rd Ludhiana,141008,Ludhiana,Ludhiana,Punjab
Mullanpur Mandi,141101,Ludhiana,Ludhiana,Punjab
Dakha,141102,Ludhiana,Ludhiana,Punjab
Mohie,141103,Ludhiana,Ludhiana,Punjab
K C G S Sudhar,141104,Ludhiana,Ludhiana,Punjab
Saraba,141105,Ludhiana,Ludhiana,Punjab
Haliwara A D,141106,Ludhiana,Ludhiana,Punjab
Halwara,141107,Ludhiana,Ludhiana,Punjab
Pakhowal,141108,Ludhiana,Ludhiana,Punjab
Raikot,141109,Raikot,Ludhiana,Punjab
Jamalpur Awana,141111,Ludhiana,Ludhiana,Punjab
Kohara,141112,Ludhiana,Ludhiana,Punjab
Katni Kalan,141113,Ludhiana,Ludhiana,Punjab
Samrala,141114,Samrala,Ludhiana,Punjab
Samrala City,141114,Samrala,Ludhiana,Punjab
Machhiwara,141115,Machhiwara,Ludhiana,Punjab
Gill,141116,Ludhiana,Ludhiana,Punjab
Sihar,141117,Ludhiana,Ludhiana,Punjab
Frhlon,141118,Ludhiana,Ludhiana,Punjab
Malaudh,141119,Ludhiana,Ludhiana,Punjab
Sanehwal,141120,Ludhiana,Ludhiana,Punjab
Bahlolpur,141121,Ludhiana,Ludhiana,Punjab
Jaspal Bangar,141122,Ludhiana,Ludhiana,Punjab
Ghulal,141124,Ludhiana,Ludhiana,Punjab
Kila Raipur,141201,Ludhiana,Ludhiana,Punjab
Gujarwal,141202,Ludhiana,Ludhiana,Punjab
Narangwal,141203,Ludhiana,Ludhiana,Punjab
Ghungrana,141204,Ludhiana,Ludhiana,Punjab
Latala,141205,Ludhiana,Ludhiana,Punjab
Ghawaddi,141206,Ludhiana,Ludhiana,Punjab
Roorka Kalan,141302,Kapurthala,Kapurthala,Punjab
Samrai,141302,Kapurthala,Kapurthala,Punjab
Jandiala,141303,Jandiala,Kapurthala,Punjab
Partabpur,141305,Kapurthala,Kapurthala,Punjab
Partap Nagar,141305,Kapurthala,Kapurthala,Punjab
Bilga,141306,Kapurthala,Kapurthala,Punjab
Pasla,141307,Kapurthala,Kapurthala,Punjab
Talwan,141308,Kapurthala,Kapurthala,Punjab
Nurmahal,141309,Kapurthala,Kapurthala,Punjab
Motor Terminus,141310,Kapurthala,Kapurthala,Punjab
Nakodar,141310,Nakodar,Kapurthala,Punjab
Nakodar Mandi,141310,Nakodar,Kapurthala,Punjab
Railway Road,141310,Kapurthala,Kapurthala,Punjab
Dhesian Kahna,141311,Kapurthala,Kapurthala,Punjab
Mahatpur,141315,Kapurthala,Kapurthala,Punjab
Shanker,141316,Kapurthala,Kapurthala,Punjab
Sarih,141317,Kapurthala,Kapurthala,Punjab
Sidhwan,141318,Kapurthala,Kapurthala,Punjab
G M Khanna,141401,Ludhiana,Ludhiana,Punjab
Khanna H O,141401,Ludhiana,Ludhiana,Punjab
Nai Mandi Khanna,141401,Ludhiana,Ludhiana,Punjab
A S College Khanna,141402,Ludhiana,Ludhiana,Punjab
Bhari,141411,Fatehgarh Sahib,Fatehgarh Sahib,Punjab
Daheru,141412,Ludhiana,Ludhiana,Punjab
Dhamot,141413,Ludhiana,Ludhiana,Punjab
Isru,141414,Ludhiana,Ludhiana,Punjab
Jarg,141415,Ludhiana,Ludhiana,Punjab
Payal,141416,Payal,Ludhiana,Punjab
Rahawan,141417,Ludhiana,Ludhiana,Punjab
Rampur,141418,Ludhiana,Ludhiana,Punjab
Ghurani Kalan,141419,Ludhiana,Ludhiana,Punjab
Doraha,141421,Ludhiana,Ludhiana,Punjab
Grain Mkt Moga,142001,Ferozepur,Ferozepur,Punjab
Industrial Area Moga,142001,Ferozepur,Ferozepur,Punjab
Moga H O,142001,Moga,Moga,Punjab
Moga Kutchery,142001,Moga,Moga,Punjab
Moga Purana,142001,Moga,Moga,Punjab
Dalla,142011,Ferozepur,Ferozepur,Punjab
Baddowai,142021,Ludhiana,Ludhiana,Punjab
Lalton Kalan,142022,Ludhiana,Ludhiana,Punjab
Man,142023,Ludhiana,Ludhiana,Punjab
Sidhwan Khurd,142024,Ludhiana,Ludhiana,Punjab
Sowaddi,142025,Ludhiana,Ludhiana,Punjab
Jagraon City,142026,Ludhiana,Ludhiana,Punjab
Jagraon H O,142026,Ludhiana,Ludhiana,Punjab
Jagraon Tehsil,142026,Ludhiana,Ludhiana,Punjab
Ayali Kalan,142027,Ludhiana,Ludhiana,Punjab
Jodhan,142029,Ludhiana,Ludhiana,Punjab
Kamalpur,142030,Ludhiana,Ludhiana,Punjab
Hathur,142031,Ludhiana,Ludhiana,Punjab
Bassian,142032,Ludhiana,Ludhiana,Punjab
Sidhwan Bet,142033,Ludhiana,Ludhiana,Punjab
Manoke,142034,Ludhiana,Ludhiana,Punjab
Mallah,142035,Ludhiana,Ludhiana,Punjab
Galib Kalan,142036,Ludhiana,Ludhiana,Punjab
Badhni Kalan,142037,Badhni Kalan,Ferozepur,Punjab
Bilaspur,142039,Fatehgarh Sahib,Fatehgarh Sahib,Punjab
Buttar,142040,Ferozepur,Ferozepur,Punjab
Canal Colony,142040,Ferozepur,Ferozepur,Punjab
Bhinder,142041,Ferozepur,Ferozepur,Punjab
Dharamkot,142042,Dharamkot,Ferozepur,Punjab
Kot Isekhan,142043,Ferozepur,Ferozepur,Punjab
Makhu,142044,Makhu,Ferozepur,Punjab
Pattohira Singh,142046,Ferozepur,Ferozepur,Punjab
Ram Road Zira,142047,Ferozepur,Ferozepur,Punjab
Shahid Gurdas,142047,Ferozepur,Ferozepur,Punjab
Zira,142047,Zira,Ferozepur,Punjab
Ghall Kalan,142048,Ferozepur,Ferozepur,Punjab
Guru Tegh Bahadurgarh,142049,Ferozepur,Ferozepur,Punjab
Talwandi,142050,Ferozepur,Ferozepur,Punjab
Talwandi Bhai,142050,Talwandi Bhai,Ferozepur,Punjab
Fatehgarh Panjtoor,142051,Ferozepur,Ferozepur,Punjab
Ferozshah,142052,Ferozepur,Ferozepur,Punjab
Dhudike,142053,Ferozepur,Ferozepur,Punjab
Kokri Kalan,142054,Ferozepur,Ferozepur,Punjab
Nihal Singh Wala,142055,Ferozepur,Ferozepur,Punjab
Gholia Khurd,142056,Ferozepur,Ferozepur,Punjab
Samadh Bhal,142057,Ferozepur,Ferozepur,Punjab
Kishanpura,142058,Fatehgarh Sahib,Fatehgarh Sahib,Punjab
Ghall Khurd,142059,Ferozepur,Ferozepur,Punjab
Mudki,142060,Ferozepur,Ferozepur,Punjab
Manawan,142061,Ferozepur,Ferozepur,Punjab
Amritsar,143001,Amritsar,Amritsar,Punjab
Amritsar Bus Stand,143001,Amritsar,Amritsar,Punjab
Amritsar H O,143001,Amritsar,Amritsar,Punjab
Amritsar Kutchery,143001,Amritsar,Amritsar,Punjab
Azad Nagar,143001,Amritsar,Amritsar,Punjab
Bandho Road,143001,Amritsar,Amritsar,Punjab
Basti Ram,143001,Amritsar,Amritsar,Punjab
Chawal Mandi,143001,Amritsar,Amritsar,Punjab
Dhab,143001,Amritsar,Amritsar,Punjab
Durgiana Mandir,143001,Amritsar,Amritsar,Punjab
Hide Market,143001,Amritsar,Amritsar,Punjab
Lawrence Road Amritsar,143001,Amritsar,Amritsar,Punjab
Medical College Amritsar,143001,Amritsar,Amritsar,Punjab
Mewa Mandi,143001,Amritsar,Amritsar,Punjab
N R Locomotive Wk Shp,143001,Amritsar,Amritsar,Punjab
Nawankot,143001,Amritsar,Amritsar,Punjab
Rani Ka Bagh,143001,Amritsar,Amritsar,Punjab
Sadar Bazar,143001,Amritsar,Amritsar,Punjab
Seth Jagat,143001,Amritsar,Amritsar,Punjab
Steno House Agency,143001,Amritsar,Amritsar,Punjab
Amritsar,143002,Amritsar,Amritsar,Punjab
Jawala Fr Mls Amritsar,143003,Amritsar,Amritsar,Punjab
Khanna Ngr Amritsar,143004,Amritsar,Amritsar,Punjab
Amritsar,143006,Amritsar,Amritsar,Punjab
Chowk Darbar Sahib,143006,Amritsar,Amritsar,Punjab
Dass Niwas,143006,Amritsar,Amritsar,Punjab
Gandhi Bazar,143006,Amritsar,Amritsar,Punjab
Golden Temple Amritsar,143006,Amritsar,Amritsar,Punjab
Guru Ram,143006,Amritsar,Amritsar,Punjab
Hindu Sabha College,143006,Amritsar,Amritsar,Punjab
Kangra Colony,143006,Amritsar,Amritsar,Punjab
Katra Karam Singh,143006,Amritsar,Amritsar,Punjab
Katra Sher Singh,143006,Amritsar,Amritsar,Punjab
Kot Rallia Ram,143006,Amritsar,Amritsar,Punjab
Majitha Mandi,143006,Amritsar,Amritsar,Punjab
Mohan Nagar,143006,Amritsar,Amritsar,Punjab
Sultant Wind Gate,143006,Amritsar,Amritsar,Punjab
Sultanwind,143021,Amritsar,Amritsar,Punjab
Sultanwind Gate,143021,Amritsar,Amritsar,Punjab
Vijay Nagar Amritsar,143036,Amritsar,Amritsar,Punjab
Raja Sansi,143101,Amritsar,Amritsar,Punjab
Ajnala,143102,Ajnala,Amritsar,Punjab
Chamiari,143103,Amritsar,Amritsar,Punjab
Amritsar,143104,Amritsar,Amritsar,Punjab
Chheharta Railway Station,143105,Amritsar,Amritsar,Punjab
Naraingarh,143106,Amritsar,Amritsar,Punjab
Distillery Khasa,143107,Amritsar,Amritsar,Punjab
Attari,143108,Amritsar,Amritsar,Punjab
Chogawan,143109,Amritsar,Amritsar,Punjab
Preet Nagar,143110,Amritsar,Amritsar,Punjab
Khilchian,143111,Amritsar,Amritsar,Punjab
Raya,143112,Fatehgarh Sahib,Fatehgarh Sahib,Punjab
Rayon Silk Mills,143112,Amritsar,Amritsar,Punjab
Fatehpur Rajputan,143113,Amritsar,Amritsar,Punjab
Jandiala Guru,143115,Amritsar,Amritsar,Punjab
Tarsikka,143116,Amritsar,Amritsar,Punjab
Thermal Power,143116,Amritsar,Amritsar,Punjab
Khadur Sahib,143117,Amritsar,Amritsar,Punjab
Khalsa College,143117,Amritsar,Amritsar,Punjab
Vairowal,143118,Amritsar,Amritsar,Punjab
Mehta Chowk,143144,Amritsar,Amritsar,Punjab
Beas,143201,Amritsar,Amritsar,Punjab
Baba Bakala,143202,Amritsar,Amritsar,Punjab
Butala,143203,Amritsar,Amritsar,Punjab
Dera Baba Jaimal Singh,143204,Amritsar,Amritsar,Punjab
Sathiala,143205,Amritsar,Amritsar,Punjab
Chabhal,143301,Amritsar,Amritsar,Punjab
Sur Singh,143302,Amritsar,Amritsar,Punjab
Bhikhiwind,143303,Bhikhiwind,Amritsar,Punjab
Kacha Pacca,143304,Amritsar,Amritsar,Punjab
Khalra,143305,Amritsar,Amritsar,Punjab
Chowk Darbar Sahib,143401,Amritsar,Amritsar,Punjab
Tarn Tarn H O,143401,Amritsar,Amritsar,Punjab
Kang,143406,Amritsar,Amritsar,Punjab
Fatehbad,143407,Amritsar,Amritsar,Punjab
Chohla Sahib,143408,Amritsar,Amritsar,Punjab
Sarhali,143410,Amritsar,Amritsar,Punjab
Dhotian,143411,Amritsar,Amritsar,Punjab
Harike,143412,Amritsar,Amritsar,Punjab
Bundala Amritsar,143413,Amritsar,Amritsar,Punjab
Sarai Amanat Khan,143414,Amritsar,Amritsar,Punjab
Kairon,143415,Amritsar,Amritsar,Punjab
Patti,143416,Patti,Amritsar,Punjab
Sabra,143417,Amritsar,Amritsar,Punjab
Voltoha,143418,Amritsar,Amritsar,Punjab
Khem Karan,143419,Khem Karan,Amritsar,Punjab
Masatgarh,143420,Amritsar,Amritsar,Punjab
Gharyala,143421,Amritsar,Amritsar,Punjab
Goindwal,143422,Amritsar,Amritsar,Punjab
Verka,143501,Amritsar,Amritsar,Punjab
Kathu Nangal,143502,Amritsar,Amritsar,Punjab
Bhangali,143503,Amritsar,Amritsar,Punjab
Chawinda Deviwala,143504,Amritsar,Amritsar,Punjab
Anarkali Batala,143505,Gurdaspur,Gurdaspur,Punjab
Batala City,143505,Batala,Gurdaspur,Punjab
Batala H O,143505,Gurdaspur,Gurdaspur,Punjab
G Nanak Ngr Batala,143505,Gurdaspur,Gurdaspur,Punjab
G T Rd Batala,143505,Gurdaspur,Gurdaspur,Punjab
K Nagar Batala,143505,Gurdaspur,Gurdaspur,Punjab
N G Batala,143505,Gurdaspur,Gurdaspur,Punjab
R R Batala,143505,Gurdaspur,Gurdaspur,Punjab
Batala,143506,Batala,Gurdaspur,Punjab
Aliwal,143507,Gurdaspur,Gurdaspur,Punjab
Fateh Nangal,143508,Gurdaspur,Gurdaspur,Punjab
Zaffarwal,143510,Gurdaspur,Gurdaspur,Punjab
Bhagowal,143511,Gurdaspur,Gurdaspur,Punjab
Kalanaur,143512,Kalanaur,Gurdaspur,Punjab
Kala Afghana,143513,Gurdaspur,Gurdaspur,Punjab
Ghoman,143514,Gurdaspur,Gurdaspur,Punjab
Bhumbli,143515,Gurdaspur,Gurdaspur,Punjab
Dhariwal,143515,Dhariwal,Gurdaspur,Punjab
Sri Hargobindpur,143515,Sri Hargobindpur,Gurdaspur,Punjab
Qadian,143516,Qadian,Gurdaspur,Punjab
Bhattian,143517,Gurdaspur,Gurdaspur,Punjab
Maja Singh,143518,Gurdaspur,Gurdaspur,Punjab
Sohal,143520,Gurdaspur,Gurdaspur,Punjab
Gurdaspur,143521,Gurdaspur,Gurdaspur,Punjab
Gurdaspur City,143521,Gurdaspur,Gurdaspur,Punjab
Gurdaspur H O,143521,Gurdaspur,Gurdaspur,Punjab
Gurdaspur Kutchery,143521,Gurdaspur,Gurdaspur,Punjab
Gurdaspur Mandi,143521,Gurdaspur,Gurdaspur,Punjab
Gurdaspur Tibri Road,143521,Gurdaspur,Gurdaspur,Punjab
Trimu Rd,143521,Gurdaspur,Gurdaspur,Punjab
Kaler Kalan,143523,Gurdaspur,Gurdaspur,Punjab
Villa Teja,143524,Gurdaspur,Gurdaspur,Punjab
Dorangla,143526,Gurdaspur,Gurdaspur,Punjab
Harchowal,143527,Gurdaspur,Gurdaspur,Punjab
Kahnuwan,143528,Gurdaspur,Gurdaspur,Punjab
Tiber,143529,Gurdaspur,Gurdaspur,Punjab
Tibri,143530,Gurdaspur,Gurdaspur,Punjab
Dina Nagar,143531,Dina Nagar,Gurdaspur,Punjab
Gandhi Nagar Dina Nagar,143531,Gurdaspur,Gurdaspur,Punjab
Behrampur,143532,Fatehgarh Sahib,Fatehgarh Sahib,Punjab
Gharota,143533,Gurdaspur,Gurdaspur,Punjab
Taragarh,143534,Gurdaspur,Gurdaspur,Punjab
Marara,143535,Gurdaspur,Gurdaspur,Punjab
Awankha,143536,Gurdaspur,Gurdaspur,Punjab
Talibpur Pandoori,143537,Gurdaspur,Gurdaspur,Punjab
Ghani Ke Banger,143538,Gurdaspur,Gurdaspur,Punjab
Majitha,143601,Majitha,Amritsar,Punjab
Fatehgarh Churian,143602,Fatehgarh Churian,Gurdaspur,Punjab
Ram Dass,143603,Amritsar,Amritsar,Punjab
Dera Baba Nanak,143604,Dera Baba Nanak,Gurdaspur,Punjab
Dhianpur,143605,Gurdaspur,Gurdaspur,Punjab
Chetanpur,143606,Amritsar,Amritsar,Punjab
Dharamkot Randhawa,143607,Amritsar,Amritsar,Punjab
Adarsh Nagar,144001,Jalandhar,Jalandhar,Punjab
Bazar Kalan,144001,Jalandhar,Jalandhar,Punjab
Bazar Nauhrian,144001,Jalandhar,Jalandhar,Punjab
Bazar Shahidan,144001,Jalandhar,Jalandhar,Punjab
Bhagat Bazar,144001,Jalandhar,Jalandhar,Punjab
Bikrampura,144001,Jalandhar,Jalandhar,Punjab
Charanjitpura,144001,Jalandhar,Jalandhar,Punjab
Chowk Jain Mandir,144001,Jalandhar,Jalandhar,Punjab
Civil Lines,144001,Jalandhar,Jalandhar,Punjab
Fentoganj,144001,Jalandhar,Jalandhar,Punjab
General Bus Std,144001,Jalandhar,Jalandhar,Punjab
Guru Ravi Dass Rd,144001,Jalandhar,Jalandhar,Punjab
Jalandhar City,144001,Jalandhar,Jalandhar,Punjab
Jalandhar City H O,144001,Jalandhar,Jalandhar,Punjab
Kutchery,144001,Jalandhar,Jalandhar,Punjab
Lajpat Nagar,144001,Jalandhar,Jalandhar,Punjab
Lyallpur Khalsa,144001,Jalandhar,Jalandhar,Punjab
Manjit Nagar,144001,Jalandhar,Jalandhar,Punjab
New Railway Colony,144001,Jalandhar,Jalandhar,Punjab
Railway Road,144001,Jalandhar,Jalandhar,Punjab
Rasta Mohalla,144001,Jalandhar,Jalandhar,Punjab
Session Courts,144001,Jalandhar,Jalandhar,Punjab
Shahib Udham,144001,Jalandhar,Jalandhar,Punjab
Shakti Nagar,144001,Jalandhar,Jalandhar,Punjab
Singh Nagar,144001,Jalandhar,Jalandhar,Punjab
Basti Jodhewal,144002,Jalandhar,Jalandhar,Punjab
Basti Nau,144002,Jalandhar,Jalandhar,Punjab
Basti Sheikh Darvesh,144002,Jalandhar,Jalandhar,Punjab
Civil Secretariat,144002,Jalandhar,Jalandhar,Punjab
Jalandhar,144002,Jalandhar,Jalandhar,Punjab
Bhargava Camp,144003,Jalandhar,Jalandhar,Punjab
Jalandhar,144003,Jalandhar,Jalandhar,Punjab
M T Jalandhar,144003,Jalandhar,Jalandhar,Punjab
Model House Colony,144003,Jalandhar,Jalandhar,Punjab
Mohalla Ramdaspura,144003,Jalandhar,Jalandhar,Punjab
D A V College,144004,Jalandhar,Jalandhar,Punjab
Hoshiarpur Rd,144004,Jalandhar,Jalandhar,Punjab
Industrial Town,144004,Jalandhar,Jalandhar,Punjab
Jalandhar,144004,Jalandhar,Jalandhar,Punjab
Kot Kishan Chand,144004,Jalandhar,Jalandhar,Punjab
Preet Nagar,144004,Jalandhar,Jalandhar,Punjab
Sodal Rd,144004,Jalandhar,Jalandhar,Punjab
Jalandhar,144005,Jalandhar,Jalandhar,Punjab
Jalandhar Cantt,144005,Jalandhar,Jalandhar,Punjab
Jalandhar Cantt H O,144005,Jalandhar,Jalandhar,Punjab
Military Hospital,144005,Jalandhar,Jalandhar,Punjab
Rama Mandi,144005,Jalandhar,Jalandhar,Punjab
Sadar Bazar,144005,Jalandhar,Jalandhar,Punjab
Topkhana Bazar,144005,Jalandhar,Jalandhar,Punjab
Jalandhar,144006,Jalandhar,Jalandhar,Punjab
Basti Danishmandan,144007,Jalandhar,Jalandhar,Punjab
Basti Gujan,144007,Jalandhar,Jalandhar,Punjab
Grain Market,144008,Jalandhar,Jalandhar,Punjab
Chogetti,144009,Jalandhar,Jalandhar,Punjab
Dhanowali,144010,Jalandhar,Jalandhar,Punjab
Regional Engg College,144011,Jalandhar,Jalandhar,Punjab
Jamsher,144020,Jalandhar,Jalandhar,Punjab
Jalandhar,144021,Jalandhar,Jalandhar,Punjab
Garha,144022,Jalandhar,Jalandhar,Punjab
Dakoha,144023,Jalandhar,Jalandhar,Punjab
Kukar Pind,144024,Jalandhar,Jalandhar,Punjab
Jandu Singha,144025,Jalandhar,Jalandhar,Punjab
Lambra,144026,Jalandhar,Jalandhar,Punjab
O D Suranassi,144027,Jalandhar,Jalandhar,Punjab
Chitti,144028,Jalandhar,Jalandhar,Punjab
Patara,144101,Jalandhar,Jalandhar,Punjab
Adampur Doaba,144102,Jalandhar,Jalandhar,Punjab
Adampur A D,144103,Jalandhar,Jalandhar,Punjab
Darauli Kalan,144104,Jalandhar,Jalandhar,Punjab
Sham Chaurasi,144105,Hoshiarpur,Hoshiarpur,Punjab
Apra,144116,Jalandhar,Jalandhar,Punjab
Bhog,144201,Jalandhar,Jalandhar,Punjab
Miani,144202,Hoshiarpur,Hoshiarpur,Punjab
Tanda,144203,Hoshiarpur,Hoshiarpur,Punjab
Urmar,144204,Hoshiarpur,Hoshiarpur,Punjab
Dasuya H O,144205,Hoshiarpur,Hoshiarpur,Punjab
Dholbaha,144206,Hoshiarpur,Hoshiarpur,Punjab
Garhdiwala,144207,Hoshiarpur,Hoshiarpur,Punjab
Hariana,144208,Hariana,Hoshiarpur,Punjab
Janauri,144209,Hoshiarpur,Hoshiarpur,Punjab
Bhunga,144210,Hoshiarpur,Hoshiarpur,Punjab
Budhi Pind,144211,Hoshiarpur,Hoshiarpur,Punjab
Mukerian,144211,Mukerian,Hoshiarpur,Punjab
Bhanowal,144213,Hoshiarpur,Hoshiarpur,Punjab
Tanda Ram Sahai,144214,Hoshiarpur,Hoshiarpur,Punjab
Talwara Township,144216,Hoshiarpur,Hoshiarpur,Punjab
Mehangarwal,144218,Hoshiarpur,Hoshiarpur,Punjab
Hajipur,144221,Hajipur,Fatehgarh Sahib,Punjab
Datarpur,144222,Hoshiarpur,Hoshiarpur,Punjab
Kamani Devi,144223,Hoshiarpur,Hoshiarpur,Punjab
Bhambootara,144224,Hoshiarpur,Hoshiarpur,Punjab
Alawalpur,144301,Alawalpur,Hoshiarpur,Punjab
Beaspind,144302,Jalandhar,Jalandhar,Punjab
Kala Bakra,144303,Jalandhar,Jalandhar,Punjab
Lakhinder,144304,Hoshiarpur,Hoshiarpur,Punjab
Khudda,144305,Hoshiarpur,Hoshiarpur,Punjab
Banga Rd Phagwara,144401,Banga,Kapurthala,Punjab
Bazar Safran Phagwara,144401,Kapurthala,Kapurthala,Punjab
Bus Stand Phagwara,144401,Kapurthala,Kapurthala,Punjab
Hoshiarpur Road,144401,Kapurthala,Kapurthala,Punjab
Kultham,144401,Kapurthala,Kapurthala,Punjab
Phagwara,144401,Phagwara,Kapurthala,Punjab
Phagwara H O,144401,Phagwara,Kapurthala,Punjab
Rlwy Road Phagwara,144401,Kapurthala,Kapurthala,Punjab
Satnampura,144402,Kapurthala,Kapurthala,Punjab
Ranipur,144403,Kapurthala,Kapurthala,Punjab
Ajnoha,144404,Hoshiarpur,Hoshiarpur,Punjab
Narur,144405,Kapurthala,Kapurthala,Punjab
Baddon,144406,Hoshiarpur,Hoshiarpur,Punjab
Domeli,144407,Kapurthala,Kapurthala,Punjab
Panchhat,144408,Kapurthala,Kapurthala,Punjab
Goraya,144409,Goraya,Jalandhar,Punjab
Govt Polytechnic,144409,Jalandhar,Jalandhar,Punjab
Industrial Area Phillaur,144410,Jalandhar,Jalandhar,Punjab
P T S Phillaur,144410,Jalandhar,Jalandhar,Punjab
Phillaur,144410,Phillaur,Jalandhar,Punjab
Lasara,144415,Jalandhar,Jalandhar,Punjab
Aur,144417,Jalandhar,Jalandhar,Punjab
Barapind,144418,Jalandhar,Jalandhar,Punjab
Dayalpur,144419,Jalandhar,Jalandhar,Punjab
Sahlon,144421,Jalandhar,Jalandhar,Punjab
Uzapur,144422,Jalandhar,Jalandhar,Punjab
Chakdana,144423,Jalandhar,Jalandhar,Punjab
Dosanjh Kalan,144502,Gurdaspur,Gurdaspur,Punjab
Pharla,144503,Jalandhar,Jalandhar,Punjab
Behram,144504,Jalandhar,Jalandhar,Punjab
Banga,144505,Banga,Jalandhar,Punjab
Banga Town,144505,Banga,Jalandhar,Punjab
Nawanshahr Road Banga,144505,Nawanshahr,Nawanshahr,Punjab
Mahil Gaila,144506,Jalandhar,Jalandhar,Punjab
Mukandpur,144507,Jalandhar,Jalandhar,Punjab
Naura,144508,Jalandhar,Jalandhar,Punjab
Naushehra,144508,Jalandhar,Jalandhar,Punjab
Khankhana,144509,Jalandhar,Jalandhar,Punjab
Ladhana Jhikka,144510,Jalandhar,Jalandhar,Punjab
Dosanjh Khurd,144511,Jalandhar,Jalandhar,Punjab
Kahma,144512,Jalandhar,Jalandhar,Punjab
Musapur,144513,Jalandhar,Jalandhar,Punjab
College Nawanshahr,144514,Nawanshahr,Nawanshahr,Punjab
Nawanshahr,144514,Nawanshahr,Nawanshahr,Punjab
Nawanshahr Mandi,144514,Nawanshahr,Nawanshahr,Punjab
R K Arya,144514,Jalandhar,Jalandhar,Punjab
Jadla,144515,Jalandhar,Jalandhar,Punjab
Langroya,144516,Jalandhar,Jalandhar,Punjab
Rahon,144517,Rahon,Jalandhar,Punjab
Garcha,144518,Jalandhar,Jalandhar,Punjab
Kot Fatuhi,144519,Hoshiarpur,Hoshiarpur,Punjab
Binjon,144520,Hoshiarpur,Hoshiarpur,Punjab
Bala Chaur,144521,Hoshiarpur,Hoshiarpur,Punjab
Kathgarh,144522,Hoshiarpur,Hoshiarpur,Punjab
Binewal,144523,Hoshiarpur,Hoshiarpur,Punjab
Saroa,144524,Hoshiarpur,Hoshiarpur,Punjab
Sahilba,144525,Hoshiarpur,Hoshiarpur,Punjab
Mehandpur,144526,Rupnagar,Rupnagar,Punjab
Garh Shankar,144527,Hoshiarpur,Hoshiarpur,Punjab
Garhshankar Kutchery,144527,Hoshiarpur,Hoshiarpur,Punjab
Rampur Bilron,144528,Hoshiarpur,Hoshiarpur,Punjab
Saila Khurd,144529,Hoshiarpur,Hoshiarpur,Punjab
Jaijon,144530,Hoshiarpur,Hoshiarpur,Punjab
Moranwali,144531,Hoshiarpur,Hoshiarpur,Punjab
Samundra,144532,Hoshiarpur,Hoshiarpur,Punjab
Kapurthala,144601,Kapurthala,Kapurthala,Punjab
Kapurthala Bus Stn,144601,Kapurthala,Kapurthala,Punjab
Kapurthala H O,144601,Kapurthala,Kapurthala,Punjab
Kapurthala Mandi,144601,Kapurthala,Kapurthala,Punjab
Kapurthala Town,144601,Kapurthala,Kapurthala,Punjab
Sant Road,144601,Kapurthala,Kapurthala,Punjab
Chaudharian,144606,Kapurthala,Kapurthala,Punjab
Raipur Pirbuxwala,144619,Hoshiarpur,Hoshiarpur,Punjab
Sheikhupura,144620,Kapurthala,Kapurthala,Punjab
Begowal,144621,Begowal,Kapurthala,Punjab
Bholath,144622,Kapurthala,Kapurthala,Punjab
Kala Singhian,144623,Kapurthala,Kapurthala,Punjab
Nabha,144624,Nabha,Kapurthala,Punjab
Nadala,144624,Kapurthala,Kapurthala,Punjab
G N O C Sultanpur,144626,Kapurthala,Kapurthala,Punjab
Lodhi,144626,Kapurthala,Kapurthala,Punjab
Sultanpur Lodhi,144626,Sultanpur Lodhi,Kapurthala,Punjab
Tharha Jadid,144628,Kapurthala,Kapurthala,Punjab
Lohian,144629,Kapurthala,Kapurthala,Punjab
Bopa Rai Kalan,144630,Kapurthala,Kapurthala,Punjab
Nangal Lubana,144631,Kapurthala,Kapurthala,Punjab
Chachoki,144632,Kapurthala,Kapurthala,Punjab
Sarhali,144633,Kapurthala,Kapurthala,Punjab
Malsian,144701,Kapurthala,Kapurthala,Punjab
Shahkot,144702,Shahkot,Kapurthala,Punjab
Nangal Ambia,144703,Kapurthala,Kapurthala,Punjab
Kartarpur,144801,Kartarpur,Kapurthala,Punjab
Kartarpur Qilla,144801,Kartarpur,Kapurthala,Punjab
Jagatjit Ngr Kapurthala,144802,Kapurthala,Kapurthala,Punjab
Dialpur,144803,Kapurthala,Kapurthala,Punjab
Dhilwan,144804,Dhilwan,Kapurthala,Punjab
Pattar Kalan,144806,Kapurthala,Kapurthala,Punjab
Abrol Nagar,145001,Gurdaspur,Gurdaspur,Punjab
Androon Bazar,145001,Gurdaspur,Gurdaspur,Punjab
Becon P O Pathankot,145001,Gurdaspur,Gurdaspur,Punjab
Civil Court Pathankot,145001,Gurdaspur,Gurdaspur,Punjab
Dalhousie Road,145001,Gurdaspur,Gurdaspur,Punjab
Dhangu Road,145001,Gurdaspur,Gurdaspur,Punjab
Gurdaspur Road,145001,Gurdaspur,Gurdaspur,Punjab
Mission Road,145001,Gurdaspur,Gurdaspur,Punjab
Model Colony,145001,Gurdaspur,Gurdaspur,Punjab
Pathankot,145001,Pathankot,Gurdaspur,Punjab
Mamoon,145002,Gurdaspur,Gurdaspur,Punjab
Siali,145003,Gurdaspur,Gurdaspur,Punjab
Dhar Kalan,145021,Gurdaspur,Gurdaspur,Punjab
Dunera,145022,Gurdaspur,Gurdaspur,Punjab
Sujanpur,145023,Sujanpur,Gurdaspur,Punjab
Madhopur,145024,Fatehgarh Sahib,Fatehgarh Sahib,Punjab
Malikpur,145025,Gurdaspur,Gurdaspur,Punjab
Narot Jaimal Singh,145026,Gurdaspur,Gurdaspur,Punjab
Haryal,145027,Gurdaspur,Gurdaspur,Punjab
Shahpur Kandi,145029,Gurdaspur,Gurdaspur,Punjab
Mirthal,145101,Hoshiarpur,Hoshiarpur,Punjab
Bahadurpur Chowk,146001,Hoshiarpur,Hoshiarpur,Punjab
Chowk Surajan,146001,Hoshiarpur,Hoshiarpur,Punjab
Guru Nanak Nagar,146001,Hoshiarpur,Hoshiarpur,Punjab
Hoshiarpur,146001,Hoshiarpur,Hoshiarpur,Punjab
Hoshiarpur City,146001,Hoshiarpur,Hoshiarpur,Punjab
Hoshiarpur Gaushala Bazar,146001,Hoshiarpur,Hoshiarpur,Punjab
Hoshiarpur Govt College,146001,Hoshiarpur,Hoshiarpur,Punjab
Hoshiarpur H O,146001,Hoshiarpur,Hoshiarpur,Punjab
Kamalpur Hoshiarpur,146001,Hoshiarpur,Hoshiarpur,Punjab
Model Town,146001,Hoshiarpur,Hoshiarpur,Punjab
Railway Rd,146001,Hoshiarpur,Hoshiarpur,Punjab
Sadhu Ashram,146021,Hoshiarpur,Hoshiarpur,Punjab
Piplanwala,146022,Hoshiarpur,Hoshiarpur,Punjab
Bajwara,146023,Hoshiarpur,Hoshiarpur,Punjab
Barian Kalan,146101,Hoshiarpur,Hoshiarpur,Punjab
Bassi Kalan,146102,Hoshiarpur,Hoshiarpur,Punjab
Basti Bawa Khel,146102,Hoshiarpur,Hoshiarpur,Punjab
Bham,146103,Hoshiarpur,Hoshiarpur,Punjab
Bihala,146104,Hoshiarpur,Hoshiarpur,Punjab
Mahilpur,146105,Mahilpur,Hoshiarpur,Punjab
Mahilpur Bus Stnd,146105,Mahilpur,Hoshiarpur,Punjab
Nangal Kalan,146106,Hoshiarpur,Hoshiarpur,Punjab
Paldi,146107,Hoshiarpur,Hoshiarpur,Punjab
Sarhala Kalan,146108,Hoshiarpur,Hoshiarpur,Punjab
Toto Mazra,146109,Hoshiarpur,Hoshiarpur,Punjab
Kot Abdul Khaliq,146110,Hoshiarpur,Hoshiarpur,Punjab
Purhiran,146111,Hoshiarpur,Hoshiarpur,Punjab
Rajpur Bhayan,146112,Hoshiarpur,Hoshiarpur,Punjab
Bullewal,146113,Hoshiarpur,Hoshiarpur,Punjab
Nanda Chaur,146114,Hoshiarpur,Hoshiarpur,Punjab
Panjjodeota,146115,Hoshiarpur,Hoshiarpur,Punjab
B S Press Patiala,147001,Patiala,Patiala,Punjab
Bahera Rd Patiala,147001,Patiala,Patiala,Punjab
Civil Lines Patiala,147001,Patiala,Patiala,Punjab
Colony Patiala,147001,Patiala,Patiala,Punjab
Dukhniwaran,147001,Patiala,Patiala,Punjab
Govt Printing,147001,Patiala,Patiala,Punjab
Gurbax Colony,147001,Patiala,Patiala,Punjab
Jaurian Bhatian,147001,Patiala,Patiala,Punjab
Lahori Gate Patiala,147001,Patiala,Patiala,Punjab
Law Courts Patiala,147001,Patiala,Patiala,Punjab
Mahendra College,147001,Patiala,Patiala,Punjab
Medical College,147001,Patiala,Patiala,Punjab
New Lal Bagh,147001,Patiala,Patiala,Punjab
Patiala,147001,Patiala,Patiala,Punjab
Patiala City,147001,Patiala,Patiala,Punjab
Patiala H O,147001,Patiala,Patiala,Punjab
Pepsu Bhakara,147001,Patiala,Patiala,Punjab
Police Lines Patiala,147001,Patiala,Patiala,Punjab
Press Patiala,147001,Patiala,Patiala,Punjab
Ragho Majra Patiala,147001,Patiala,Patiala,Punjab
Road Patiala,147001,Patiala,Patiala,Punjab
Saifabad Gate Patiala,147001,Patiala,Patiala,Punjab
Secretariat Patiala,147001,Patiala,Patiala,Punjab
Shahi Samadhan Patiala,147001,Patiala,Patiala,Punjab
Sheranwala Gate Patiala,147001,Patiala,Patiala,Punjab
Sirhindi Bazar Patiala,147001,Patiala,Patiala,Punjab
Thappar Engg Institute,147001,Patiala,Patiala,Punjab
Tripri Patiala,147001,Patiala,Patiala,Punjab
Univ P O Patiala,147002,Patiala,Patiala,Punjab
Bhunerheri,147003,Patiala,Patiala,Punjab
Bahadurgarh,147021,Patiala,Patiala,Punjab
Samana,147101,Samana,Patiala,Punjab
Ghagga,147102,Ghagga,Patiala,Punjab
Sanaur,147103,Sanaur,Patiala,Punjab
Chinarthal Kalan,147104,Patiala,Patiala,Punjab
Patran,147105,Patiala,Patiala,Punjab
Anaj Mandi Nabha,147201,Patiala,Patiala,Punjab
Nabha,147201,Patiala,Patiala,Punjab
Nabha Rly Station,147201,Patiala,Patiala,Punjab
Patiala Gate,147201,Patiala,Patiala,Punjab
Bhadson,147202,Patiala,Patiala,Punjab
Amloh,147203,Amloh,Fatehgarh Sahib,Punjab
Meemsa,147205,Patiala,Patiala,Punjab
Industrial Town,147301,Patiala,Patiala,Punjab
Mandi Gobindgarh,147301,Patiala,Patiala,Punjab
Mandi Govindgarh,147301,Patiala,Patiala,Punjab
Mandi Govindgarh R/R,147301,Patiala,Patiala,Punjab
Hospital Road,148001,Sangrur,Sangrur,Punjab
New Grain Mkt,148001,Sangrur,Sangrur,Punjab
Sangrur,148001,Sangrur,Sangrur,Punjab
Sangrur City,148001,Sangrur,Sangrur,Punjab
Sangrur H O,148001,Sangrur,Sangrur,Punjab
Bahadurpur,148004,Sangrur,Sangrur,Punjab
Ubhewal,148005,Sangrur,Sangrur,Punjab
Badru Khan,148006,Sangrur,Sangrur,Punjab
Mehlam,148007,Sangrur,Sangrur,Punjab
Mangwal,148008,Sangrur,Sangrur,Punjab
Lohat Badi,148009,Sangrur,Sangrur,Punjab
Sandhaur,148020,Sangrur,Sangrur,Punjab
Ahmedgarh,148021,Ahmedgarh,Sangrur,Punjab
Amargarh,148022,Sangrur,Sangrur,Punjab
Lal Bazar,148023,Sangrur,Sangrur,Punjab
Malerkotla,148023,Malerkotla,Sangrur,Punjab
Dhuri,148024,Dhuri,Sangrur,Punjab
Sangrur Rd Dhuri,148024,Sangrur,Sangrur,Punjab
Sherpur,148025,Sangrur,Sangrur,Punjab
Bhawanigarh,148026,Bhawanigarh,Sangrur,Punjab
Pakki Khanauri,148027,Sangrur,Sangrur,Punjab
Sunam,148028,Sunam,Sangrur,Punjab
Sunam City,148028,Sunam,Sangrur,Punjab
Cheema,148029,Cheema,Sangrur,Punjab
Lehragaga,148031,Lehragaga,Sangrur,Punjab
Nagra,148032,Sangrur,Sangrur,Punjab
Akalgarh,148033,Akalgarh,Sangrur,Punjab
Ladda,148034,Sangrur,Sangrur,Punjab
Dirba,148035,Dirba,Sangrur,Punjab
Rogla,148036,Sangrur,Sangrur,Punjab
Fatehgarh Panjjarian,148038,Sangrur,Sangrur,Punjab
Hamidi,148039,Sangrur,Sangrur,Punjab
Janal,148040,Sangrur,Sangrur,Punjab
Bhuthal Kalan,148041,Sangrur,Sangrur,Punjab
Gujran,148042,Sangrur,Sangrur,Punjab
Balram,148043,Sangrur,Sangrur,Punjab
Kothla,148044,Sangrur,Sangrur,Punjab
Khanal Kalan,148045,Sangrur,Sangrur,Punjab
Banra,148046,Sangrur,Sangrur,Punjab
Chhahar,148047,Sangrur,Sangrur,Punjab
Gharanchon,148048,Sangrur,Sangrur,Punjab
Mauran,148049,Sangrur,Sangrur,Punjab
Bathan,148050,Sangrur,Sangrur,Punjab
Banbhauran,148051,Sangrur,Sangrur,Punjab
Barnala,148101,Barnala,Sangrur,Punjab
Barnala Kutchery Clg Rd,148101,Sangrur,Sangrur,Punjab
Bhadaur,148102,Bhadaur,Sangrur,Punjab
Shaina,148103,Sangrur,Sangrur,Punjab
Mahilkalan,148104,Sangrur,Sangrur,Punjab
Dhanaula,148105,Dhanaula,Fatehgarh Sahib,Punjab
Longowal,148106,Longowal,Sangrur,Punjab
Hadiaya,148107,Sangrur,Sangrur,Punjab
Tapa,148108,Sangrur,Sangrur,Punjab
Joga,148109,Bhatinda,Bhatinda,Punjab
Pako Kalan,148110,Bhatinda,Bhatinda,Punjab
Sheron,148111,Bhatinda,Bhatinda,Punjab
Kaleki,148112,Bhatinda,Bhatinda,Punjab
Sanghera,148113,Bhatinda,Bhatinda,Punjab
Pharwali,148114,Bhatinda,Bhatinda,Punjab
Bhutna,148115,Bhatinda,Bhatinda,Punjab
Jaioke,148116,Bhatinda,Bhatinda,Punjab
Kattu,148117,Sangrur,Sangrur,Punjab
Bhatinda,151001,Bhatinda,Bhatinda,Punjab
Bhatinda H O,151001,Bhatinda,Bhatinda,Punjab
Nai Basti,151001,Bhatinda,Bhatinda,Punjab
G Nanak Thl Plt Bhatinda,151002,Bhatinda,Bhatinda,Punjab
Bhatinda,151003,Bhatinda,Bhatinda,Punjab
Bhatinda City,151005,Bhatinda,Bhatinda,Punjab
Bhuchu,151101,Bhatinda,Bhatinda,Punjab
Nathana,151102,Bhatinda,Bhatinda,Punjab
National Fertilizer,151102,Bhatinda,Bhatinda,Punjab
Rampura Phul,151103,Rampura Phul,Bhatinda,Punjab
Phul,151104,Bhatinda,Bhatinda,Punjab
Mehraj,151105,Bhatinda,Bhatinda,Punjab
Bhai Rupa,151106,Bhatinda,Bhatinda,Punjab
Balanwali,151107,Bhatinda,Bhatinda,Punjab
Salabatpur,151108,Bhatinda,Bhatinda,Punjab
Mandi Kalan,151110,Bhatinda,Bhatinda,Punjab
Gonina Mandi,151201,Bhatinda,Bhatinda,Punjab
Jaitu,151202,Jaitu,Faridkot,Punjab
Faridkot H O,151203,Faridkot,Faridkot,Punjab
Faridkot Mandi,151203,Faridkot,Faridkot,Punjab
Faridkot Secretariat,151203,Faridkot,Faridkot,Punjab
Kotkapura,151204,Faridkot,Faridkot,Punjab
Rlwy Bazar,151204,Faridkot,Faridkot,Punjab
Bajkhana,151205,Faridkot,Faridkot,Punjab
Bhagta Bhai,151206,Bhatinda,Bhatinda,Punjab
Panjgrain Kalan,151207,Bhatinda,Bhatinda,Punjab
Bargari,151208,Faridkot,Faridkot,Punjab
Sandhawan,151209,Faridkot,Faridkot,Punjab
Alamwala,151210,Faridkot,Faridkot,Punjab
Raman,151301,Raman,Bhatinda,Punjab
Talwasdi Saboo,151302,Bhatinda,Bhatinda,Punjab
Sangat,151401,Sangat,Bhatinda,Punjab
Bareta,151501,Bhatinda,Bhatinda,Punjab
Budhlada,151502,Budhlada,Mansa,Punjab
Boha,151503,Bhatinda,Bhatinda,Punjab
Bhikhi,151504,Bhikhi,Bhatinda,Punjab
Mansa,151505,Mansa,Mansa,Punjab
Nai Basti Mansa,151505,Mansa,Mansa,Punjab
Jhunir,151506,Bhatinda,Bhatinda,Punjab
Sirki Bazar Bhatinda,151506,Bhatinda,Bhatinda,Punjab
Sardulgarh,151507,Sardulgarh,Mansa,Punjab
Bhaini Bagga,151508,Bhatinda,Bhatinda,Punjab
Maur,151509,Maur,Bhatinda,Punjab
Kuttiwal Kalan,151510,Bhatinda,Bhatinda,Punjab
Kahangarh,151511,Bhatinda,Bhatinda,Punjab
Ferozepur Bazar,152001,Ferozepur,Ferozepur,Punjab
Ferozepur City,152001,Ferozepur,Ferozepur,Punjab
Ferozepur City Arya,152001,Ferozepur,Ferozepur,Punjab
Ferozepur City D B Office,152001,Ferozepur,Ferozepur,Punjab
Ferozepur General Bus Sd,152001,Ferozepur,Ferozepur,Punjab
Ferozepur Sabzi,152001,Ferozepur,Ferozepur,Punjab
Ferozepur Sadar Bazar,152001,Ferozepur,Ferozepur,Punjab
Ferozpur Aliwal Lines,152001,Ferozepur,Ferozepur,Punjab
Ferozpur Cantt,152001,Ferozepur,Ferozepur,Punjab
Ferozpur H O,152001,Ferozepur,Ferozepur,Punjab
Krishna Sudama,152001,Ferozepur,Ferozepur,Punjab
Mandi,152001,Ferozepur,Ferozepur,Punjab
Railway Station,152001,Ferozepur,Ferozepur,Punjab
Samaj Chowk,152001,Ferozepur,Ferozepur,Punjab
Ferozepur,152003,Fatehgarh Sahib,Fatehgarh Sahib,Punjab
Killianwali,152004,Ferozepur,Ferozepur,Punjab
Kandwala Amarkot,152005,Ferozepur,Ferozepur,Punjab
Mallanwala,152021,Ferozepur,Ferozepur,Punjab
Guru Shai,152022,Ferozepur,Ferozepur,Punjab
Mamdot,152023,Ferozepur,Ferozepur,Punjab
Jalalabad,152024,Jalalabad,Ferozepur,Punjab
Bariwala,152025,Bariwala,Faridkot,Punjab
Muktsar,152026,Muktsar,Muktsar,Punjab
Muktsar Kutchery,152026,Muktsar,Muktsar,Punjab
Sadar Bazar,152026,Faridkot,Faridkot,Punjab
Doba,152031,Faridkot,Faridkot,Punjab
Rupana,152032,Faridkot,Faridkot,Punjab
Mandi Aminganj,152033,Ferozepur,Ferozepur,Punjab
Gidderbaha,152101,Gidderbaha,Faridkot,Punjab
Gidderbaha C C,152102,Gidderbaha,Faridkot,Punjab
Jhumba,152103,Faridkot,Faridkot,Punjab
Malout,152107,Malout,Muktsar,Punjab
Ram Nagar,152112,Faridkot,Faridkot,Punjab
Lambi,152113,Faridkot,Faridkot,Punjab
Tappakhera,152114,Faridkot,Faridkot,Punjab
Bhai Ka Khera,152115,Faridkot,Faridkot,Punjab
Abohar,152116,Abohar,Ferozepur,Punjab
Abohar Mandi,152116,Ferozepur,Ferozepur,Punjab
Krishana Nagri,152116,Ferozepur,Ferozepur,Punjab
Shitya Sadan,152116,Ferozepur,Ferozepur,Punjab
Balluna,152117,Ferozepur,Ferozepur,Punjab
Ramsara,152120,Ferozepur,Ferozepur,Punjab
Khuikhera,152121,Ferozepur,Ferozepur,Punjab
Nihal Khera,152122,Ferozepur,Ferozepur,Punjab
Cloth Mkt Fazilka,152123,Ferozepur,Ferozepur,Punjab
Fazika,152123,Ferozepur,Ferozepur,Punjab
Suban,152124,Ferozepur,Ferozepur,Punjab
Dharangwali,152125,Ferozepur,Ferozepur,Punjab
Paterwala,152126,Ferozepur,Ferozepur,Punjab
Churiwala Dhanna,152127,Ferozepur,Ferozepur,Punjab
Haripur,152128,Fatehgarh Sahib,Fatehgarh Sahib,Punjab
Panjkosi,152129,Ferozepur,Ferozepur,Punjab
Jhumianwali,152130,Ferozepur,Ferozepur,Punjab
Thumianwali,152130,Ferozepur,Ferozepur,Punjab
Mauzam,152131,Ferozepur,Ferozepur,Punjab
Mauzgarh,152132,Ferozepur,Ferozepur,Punjab
New Secretariate,160001,Chandigarh,Chandigarh,Chandigarh
Industrial Area Sector 28,160002,Chandigarh,Chandigarh,Chandigarh
Aerodrome Chandigarh,160003,Chandigarh,Chandigarh,Chandigarh
Sector 8 Chandigarh,160008,Chandigarh,Chandigarh,Chandigarh
Sector 9 Chandigarh,160009,Chandigarh,Chandigarh,Chandigarh
Sector 10 Chandigarh,160010,Chandigarh,Chandigarh,Chandigarh
Sector 11 Chandigarh,160011,Chandigarh,Chandigarh,Chandigarh
Sector 12 Chandigarh,160011,Chandigarh,Chandigarh,Chandigarh
Engg College,160012,Chandigarh,Chandigarh,Chandigarh
Sector 14 Chandigarh,160014,Chandigarh,Chandigarh,Chandigarh
Sector 16 Chandigarh,160016,Chandigarh,Chandigarh,Chandigarh
Chandigarh,160017,Chandigarh,Chandigarh,Chandigarh
General Bus Stand,160017,Chandigarh,Chandigarh,Chandigarh
Sector 17 Chandigarh,160017,Chandigarh,Chandigarh,Chandigarh
Sector 18 Chandigarh,160018,Chandigarh,Chandigarh,Chandigarh
Sector 19 Chandigarh,160019,Chandigarh,Chandigarh,Chandigarh
Sector 27 Chandigarh,160019,Chandigarh,Chandigarh,Chandigarh
Sector 20 Chandigarh,160020,Chandigarh,Chandigarh,Chandigarh
Sector 29 Chandigarh,160020,Chandigarh,Chandigarh,Chandigarh
Bajwara Chandigarh,160022,Chandigarh,Chandigarh,Chandigarh
Sector 21 Chandigarh,160022,Chandigarh,Chandigarh,Chandigarh
Sector 22 Chandigarh,160022,Chandigarh,Chandigarh,Chandigarh
Sector 23 Chandigarh,160023,Chandigarh,Chandigarh,Chandigarh
Sector 35 Chandigarh,160023,Chandigarh,Chandigarh,Chandigarh
Sector 26 Chandigarh,160026,Chandigarh,Chandigarh,Chandigarh
Sector 31 Chandigarh,160031,Chandigarh,Chandigarh,Chandigarh
Sector 36 Chandigarh,160036,Chandigarh,Chandigarh,Chandigarh
Mohali Sas Nagar,160055,Chandigarh,Chandigarh,Chandigarh
Sector 59 Chandigarh,160059,Chandigarh,Chandigarh,Chandigarh
Sector 61 Chandigarh,160061,Chandigarh,Chandigarh,Chandigarh
Mani Mazra,160101,Chandigarh,Chandigarh,Chandigarh
Burail,160106,Chandigarh,Chandigarh,Chandigarh
Bharari,171001,Shimla,Shimla,Himachal Pradesh
Combermere,171001,Shimla,Shimla,Himachal Pradesh
Elysium,171001,Shimla,Shimla,Himachal Pradesh
Shimla,171001,Shimla,Shimla,Himachal Pradesh
H P Sectt,171002,Shimla,Shimla,Himachal Pradesh
Simla East,171002,Shimla,Shimla,Himachal Pradesh
A G P O Shimla,171003,Shimla,Shimla,Himachal Pradesh
Command H Q,171003,Shimla,Shimla,Himachal Pradesh
Command Hq,171003,Shimla,Shimla,Himachal Pradesh
Simla Sectt,171003,Shimla,Shimla,Himachal Pradesh
Chaura Maidan Simla,171004,Shimla,Shimla,Himachal Pradesh
Nabha Estate,171004,Shimla,Shimla,Himachal Pradesh
Botleauganj,171005,Shimla,Shimla,Himachal Pradesh
Summer Hill,171005,Shimla,Shimla,Himachal Pradesh
Sanjauli,171006,Shimla,Shimla,Himachal Pradesh
Mashobra,171007,Shimla,Shimla,Himachal Pradesh
Jutogh,171008,Jutogh,Shimla,Himachal Pradesh
Kasumpti,171009,Shimla,Shimla,Himachal Pradesh
Tara Devi,171010,Shimla,Shimla,Himachal Pradesh
